brand,city,store,address,Latitude,Longitude,telephone,openhour
연돈볼카츠,서울특별시,이마트용산점,"서울 용산구 한강대로23길 55 (한강로3가, 용산역) 지하2층 이마트용산점 內",37.5294444,126.9655556,미등록,10:00 ~21:00(브레이크타임 13:30~15:00)
빽다방,서울특별시,잠실레이크팰리스점,서울 송파구 석촌호수로 144,37.5069053,127.0929785,070-8287-1231,08:00 ~ 22:00
빽보이피자,서울특별시,노원역점,"서울 노원구 상계로1길 14-11 (상계동, 하이웰빙상가) 하이웰빙상가 1층",37.6570179,127.0617489,포장 주문 번호 1668-1931,11:00 ~ 22:00
빽다방,서울특별시,이태원경리단길점,서울 용산구 회나무로13길 5,37.5394814,126.9892703,070-4070-6616,10:00 ~ 21:00
제순식당,서울특별시,연세대SK국제학사점,"서울 서대문구 연세로 50 연세대학교 신촌캠퍼스 SK국제학사, B2층",37.565784,126.938572,-,11:00 ~ 19:00
백스비어,서울특별시,구파발역점,"서울 은평구 진관3로 11, 제101동 제1층 제101호(진광동, 은평뉴타운 힐데스하임)",37.6387556,126.9185829,070-4833-2725,17:00~01:00
인생설렁탕,서울특별시,연세대SK국제학사점,"서울특별시 서대문구 연세로 50, 지하 2층",37.564089,126.9389809,미등록,10:00 ~ 19:00 / 브레이크 타임 14:30 ~ 15:30
빽보이피자,서울특별시,신논현역점,서울 서초구 반포동 738-43 1층,37.504794,127.0226881,포장 주문 번호 1668-3791,11:00 ~ 21:00
한신포차,서울특별시,공릉점,서울 노원구 섬밭로 19 1층 102호,37.6183422999999,127.0722735,070-4060-5482,평일 16시 ~ 01시 / 주말 15시 ~ 01시
빽다방,서울특별시,삼양시장점,서울 강북구 미아동 867-118,37.624833,127.0180045,070-4027-3328,08:00 ~ 22:00
빽다방,대구광역시,대구범물시티월드점,대구 수성구 지범로 183,35.8215938,128.6397036,0507-1477-0290,08:00 ~ 22:00
빽다방,서울특별시,장안현대홈타운점,"서울 동대문구 장안벚꽃로 107 (장안동, 장안현대홈타운) 1층 109호",37.5665923,127.0724194,070-4833-1311,08:00 ~ 22:00
빽보이피자,서울특별시,위례점,서울 송파구 장지동 894 5동 107호,37.4773867,127.1285282,포장 주문 번호 1668-3249,11:00 ~ 22:00
빽다방,서울특별시,가좌역점,"서울 서대문구 수색로2길 39 (남가좌동, DMC금호리첸시아) 1층 106호",37.5706919,126.9157882,-,8:00 ~ 21:00
빽다방,서울특별시,목동41타워점,"서울시 양천구 목동동로 293, 1층 1-10호(목동, 현대41타워)",37.5281527,126.8757457,02-2644-7140,평일 07:30 ~ 22:00주말 08:30 ~ 22:00
빽다방,서울특별시,논현영동시장점,서울 강남구 논현동 164-11(강남대로 506) 1층 109호,37.5074236,127.023501,070-4035-3183,평일 08:00 ~ 22:00주말 09:30 ~ 22:00
빽다방,서울특별시,천호힐데스하임점,"서울 강동구 올림픽로 78길 30 (천호동 437-5) 힐데스하임천호 근생 8, 9호",37.541855,127.1260788,02-470-1651,08:00 ~ 21:00
역전우동0410,서울특별시,고대안암점,서울특별시 성북구 안암동5가 94-2 1층,37.5861172,127.0305073,02-765-0054,11:00 ~ 22:00
연돈볼카츠,부산광역시,부산화명역점,부산 북구 화명동 2272-3,35.235425,129.012042,070-8691-1940,11:00 ~ 22:00(라스트오더)
인생설렁탕,서울특별시,당산점,서울 영등포구 당산로41길 11 SK V1 센터 내 117호,37.5308096,126.8983384,070-4647-1430,11:00 ~ 22:00
빽보이피자,서울특별시,수유점,서울 강북구 번동 446-47 1층,37.6375467,127.0259621,포장 주문 번호 1668-1363,11:00 ~ 21:00
,서울특별시,남구로점,서울 구로구 구로동 1280 1층,37.4885326,126.8906507,포장 주문 번호 1668-4014,11:00 ~ 21:00
빽다방,서울특별시,빽다방 빵연구소 연세대SK국제학사점,신촌동 134 (연세로 50) 연세대학교 신촌캠퍼스 sk국제학사 지하2층,37.564089,126.9389809,02-393-2238,08:00 ~ 18:00
빽다방,서울특별시,등촌성당점,"서울시 강서구 공항대로 41길 51, 1층 101호, 102호",37.5601978,126.8457639,02-3663-4067,평일 08:00 ~ 21:30주말 08:30 ~ 21:30
백스비어,서울특별시,상일점,서울특별시 강동구 상일로 17 1층,37.5485986,127.172972,-,17:00 ~ 02:00
빽보이피자,서울특별시,고대안암점,"서울 성북구 고려대로24길 58-5 (안암동5가, 고려안암빌딩) 2층",37.5861565,127.0309144,포장 주문 번호 1668-1490,11:00 ~ 21:00
빽보이피자,서울특별시,신정네거리점,"서울 양천구 중앙로43길 14 (신정동, 래미안 목동아델리체) 목동아델리체",37.5180135,126.8518873,포장 주문 번호 1668-1402,11:00 ~ 21:00
빽다방,서울특별시,고덕역점,서울 강동구 동남로75길 13-7,37.5538874999999,127.1555,02-442-9159,08:00 ~ 22:30
빽보이피자,서울특별시,구파발역점,"서울 은평구 진관3로 11 (진관동, 은평뉴타운 힐데스하임) 1층 110호",37.6392669,126.9183763,포장주문 번호 1668-5460,11:00 ~ 21:00
빽다방,서울특별시,한성대입구역점,"서울 성북구 삼선교로 2-1, 1층",37.5880476,127.0062888,070-4066-0670,평일 07:30 ~ 22:30주말 08:30 ~ 22:30
빽다방,서울특별시,금천정훈단지점,"서울 금천구 독산로 211 (독산동, 세진아파트) 1층 101호",37.4654902,126.901952,070-8648-1140,08:00 ~ 22:00
빽보이피자,서울특별시,답십리사거리점,서울 동대문구 답십리동 243-3 1층,37.5735112,127.0572595,포장주문전화 1668-4429,11:00 ~ 21:00
빽보이피자,서울특별시,우장산역점,서울 강서구 강서로 279 (내발산동) 1층,37.5506214,126.8360093,포장주문번호 1668-5890,11:00 ~ 21:00
빽보이피자,서울특별시,송파헬리오시티점,"서울 송파구 가락로12길 4 (석촌동, 파크팰리스) 1층",37.500208,127.1061441,포장주문번호 1668-5490,11:00 ~ 21:00
연돈볼카츠,서울특별시,신길점,"서울 영등포구 신길로28길 9, 상가동 B2층 118호",37.5030167,126.9116526,0507-1338-9499,11:00 ~ 20:30
연돈볼카츠,서울특별시,당곡역,서울 관악구 봉천동 972-1 1층,37.4900863,126.9273716,0507-1434-0729,11:00~22:00
빽다방,서울특별시,마곡리더스타워점,서울 강서구 마곡동 800-5(공항대로 228) 리더스타워 1층 111호,37.5585613,126.8340423,미등록,월~금요일 07:30 ~ 19:00토요일 10:00 ~ 18:00
백스비어,서울특별시,상암점,서울 마포구 상암동 4-1 2층,37.5786907,126.8948482,0507-1316-5240,17시 ~ 02시
빽다방,서울특별시,부산지사동점,부산광역시 강서구 과학산단2로 20번길 6 (지사동 1196-2),35.1507897,128.833334,051-971-9466,08:00 ~ 21:00
빽다방,서울특별시,마곡수명산점,"서울 강서구 내발산동 750-12 (웨스턴빌딩 1층, 103호)",37.5534108,126.8267049,070-7525-0808,평일 07:30 ~ 22:30주말 07:30 ~ 22:00
빽다방,경기도,동탄역시범단지점,경기도 화성시 청계동 514-2 서진프라자 105호,37.3934983,127.0120815,070-4566-2995,08:00 ~ 21:00
빽다방,서울특별시,강서구청점,"서울특별시 강서구 화곡로 318-1, 1층",37.5522479,126.8504678,070-4333-0404,08:00 ~ 22:00
빽다방,서울특별시,목동8단지점,서울 양천구 신정동 318-5 1층,37.5218022,126.8691371,070-4333-1840,09:00 ~ 21:00
빽다방,서울특별시,길음롯데클라시아점,서울 성북구 길음동 508-16 롯데캐슬클라시아 상가동 117호,37.6089956,127.0271501,070-4010-1581,08:00 ~ 21:30
빽다방,서울특별시,숙대입구역점,서울 용산구 갈월동 90-10,37.5430867,126.9721877,02-712-0094,07:00 ~ 22:00
고투웍,서울특별시,성수역점,"서울특별시 성동구 성수동 2가 314-13, 1층 112호",37.5437995,127.0539096,070-4848-0165,
빽다방,서울특별시,개롱역점,서울 송파구 가락동 166-2 에스케이허브파크 113호,37.4979095,127.1342089,070-8656-0882,08:00 ~ 22:00
빽다방,서울특별시,상계보람점,서울 노원구 상계동 456-129,37.6651578,127.0665271,02-6227-6952,08:00 ~ 22:00
역전우동0410,서울특별시,신정네거리역점,"서울 양천구 중앙로43길 14 (신정동, 래미안 목동아델리체) A20호",37.5180135,126.8518873,0507-1348-5538,영업시간:11시 ~ 22시 브레이크타임:15:30~17:00
리춘시장,서울특별시,강남역점,서울특별시 강남구 테헤란로1길 30 2층,37.5002493,127.0275166,070-8633-8280,17:00 ~ 01:00
빽다방,서울특별시,장안뉴시티점,"서울 동대문구 장한로 105 (장안동, 장안 NEW CITY) 1층",37.5699851,127.0699406,070-4010-5115,"평일 08:00 ~ 22:30주말, 공휴일 09:00 ~ 22:30"
빽보이피자,서울특별시,연남점,서울 서대문구 연희로 36 1층 106호,37.5617911,126.9274887,포장주문번호 1666-1089,11:00 ~ 23:00
연돈볼카츠,서울특별시,문래점,"서울 영등포구 문래로 79-4 (문래동3가, 태양프라자) 103-1호",37.5197754,126.8909564,02-3667-0320,11:00~21:00
빽보이피자,서울특별시,봉천점,서울특별시 관악구 쑥고개로 50,37.4794185,126.9421217,포장주문번호 1666-8990,11:00 ~ 22:00
빽다방,서울특별시,고대구로병원점,서울 구로구 구로동 730-60(구로동로 138),37.490789,126.8842577,02-6015-9504,07:30 ~ 22:00
인생설렁탕,서울특별시,까치산역점,서울 강서구 강서로 60-1 (화곡동) 1층,37.5331024,126.8461681,070-4800-2243,11:00 ~ 22:30
홍콩반점0410,서울특별시,홍제점,서울 서대문구 세검정로 52-10 (홍제동) 1층,37.5919658,126.9465059,031-953-0410,11:00 ~ 21:00
역전우동0410,서울특별시,신림난곡점,서울 관악구 신림동 617-1,37.4733677,126.9189981,02-838-6863,9:30~21:30
빽보이피자,서울특별시,까치산역점,"강서구 강서로 60-1, 1층",37.5331024,126.8461681,포장주문번호 1668-5202,
홍콩반점0410,서울특별시,한남점,"서울 용산구 한남대로21길 20, 지하1층",37.5338912,127.0061366,02-796-0410,11:00 ~ 21:00
롤링파스타,서울특별시,화곡역점,서울 강서구 화곡로 166 2층,37.5412582,126.8400723,02-2620-2622,11:00 ~ 21:30 점심 주문마감 14:30  저녁 주문마감 20:30  브레이크타임 15:00~17:00
백스비어,서울특별시,신대방삼거리역점,서울시 동작구 여의대방로 22길121 보라매자이더포레스트.상가동 1450호,37.4982221,126.9266084,070-4632-3493,16:00~ 01:00
빽다방,서울특별시,영등포시장역점,서울 영등포구 국회대로50길 20 포레나영등포센트럴 상가동 117호,37.5246173,126.9061331,070-4353-1971,평일 및 토요일 07:00 ~ 21:30일요일 08:00 ~ 21:30아이스크림 마감 20:00
빽다방,서울특별시,가산AP타워점,서울 금천구 가산동 673(가산디지털1로 16) 가산skv1ap타워 105호,37.4676446,126.8876698,02-6138-2121,07:30 ~ 19:00
빽다방,서울특별시,가산그레이트점,서울 금천구 가산동 60-5 갑을그레이트밸리 105호,37.4794444,126.8875,02-2104-3530,평일 07:30 ~ 18:30주말 09:30 ~ 18:30공휴일 10:30 ~ 18:30
연돈볼카츠,서울특별시,왕십리역점,"서울시 성동구 마조로1길 41 2층,3층",37.5610662,127.0391829,02-2282-0120,11:00~23:00
연돈볼카츠,서울특별시,대치점,서울시 강남구 삼성로 238,37.4985996,127.0613913,02-2138-2353,11:00 ~ 20:00
연돈볼카츠,서울특별시,잠실새내역점,서울시 송파구 올릭핌로 118 1층 2호,37.5113777,127.0838176,02-3432-0120,11:00 ~ 23:00
연돈볼카츠,서울특별시,연신내역점,서울시 은평구 연서로 215-1 1층,37.6178665,126.9194706,02-356-8089,11:00~22:00
연돈볼카츠,서울특별시,강남CGV점,서울시 강남구 강남대로 438 213호,37.5016624999999,127.0263628,010-4468-6664,10:00~재료소진시
홍콩반점0410,서울특별시,독립문점,서울특별시 서대문구 독립문로 15 1층,37.570332,126.960225,070-7786-1253,11:00 ~ 20:30 / 브레이크타임 14:00 ~ 17:00
빽다방,서울특별시,용마산역점,서울시 중랑구 면목로 27길 4 (면목동 372-21),37.5751278,127.0851145,070-8672-1172,평일 08:00 ~ 22:00주말 09:00 ~ 22:00
빽다방,서울특별시,신림대학점,"서울 관악구 신림로23길 21 (신림동, 웰탑스터디독서실) 1층",37.4699514,126.9349707,070-8648-1222,평일 07:30 ~ 22:30주말 08:30 ~ 21:30
빽다방,서울특별시,수유시장점,서울 강북구 도봉로67길 8,37.6308048,127.0237356,02-989-3122,08:00 ~ 23:00
빽다방,서울특별시,석촌역점,서울 송파구 송파동 19-8 1층,37.5062991,127.1082686,070-8676-1453,평일 08:00 ~ 21:30주말/공휴일 09:00 ~ 21:30
빽다방,서울특별시,안국역점,서울 종로구 율곡로 63 (재동) 1층,37.5785732,126.9852098,02-744-8559,평일 07:00 ~ 21:00주말/공휴일 09:00~20:00
빽다방,서울특별시,태릉입구역점,서울 노원구 동일로 986 104호,37.6181739,127.0759592,070-4077-2127,08:00 ~ 21:00
빽다방,서울특별시,서대문경희궁점,"서울 종로구 경교장길 35 (평동, 경희궁자이 3단지) 1층 3135호",37.5687597,126.9661671,070-4355-3301,07:00 ~ 19:00
빽다방,서울특별시,창동역서부점,서울 도봉구 노해로63다길 10,37.6533098,127.0465382,02-2135-1221,08:00 ~ 22:00
빽다방,서울특별시,문정역점,서울 송파구 문정동 643-1(법원로 114),37.4941097,127.0106092,02-2039-3644,07:00 ~ 19:00
리춘시장,서울특별시,합정역점,서울 마포구 서교동 397-10 1층,37.5500909,126.9177801,02-333-8959,11:00~22:00
성성식당,서울특별시,419사거리점,서울 강북구 수유동 279-126 1층,37.6481473,127.0133858,02-6953-4190,13:00 ~ 01:00
홍콩반점0410,서울특별시,구파발역점,서울 은평구 진관3로 22 (진관동) 102호,37.6389324,126.9191941,02-388-0410,11:30 ~ 21:00
빽다방,서울특별시,번동초교점,서울 강북구 번동 310-4 1층,37.6291176999999,127.0396036,070-5030-2273,08:00 ~ 22:00
백스비어,서울특별시,연신내역점,서울특별시 은평구 연서로29길 14-13 남경빌딩 2층,37.619544,126.9191529,02-352-1292,17:00 ~ 05:00
빽다방,서울특별시,구로이앤씨6차점,"서울특별시 구로구 디지털로31길 41 (구로동, 이앤씨벤처드림타워6차), 1층 108호",37.4851381,126.8927305,02-869-1777,07:00 ~ 21:00
홍콩반점0410,서울특별시,송파구청점,"서울 송파구 오금로11길 11-8 현대드림밸리 2층 203, 204호",37.5149437,127.1087336,02-420-0410,11:00 ~ 21:00
빽다방,서울특별시,상계역점,서울특별시 노원구 중계동 606 1층 105호,37.6514398,127.0831273,02-2088-5805,09:00 ~ 22:30
빽다방,서울특별시,건대동문회관점,서울특별시 광진구 아차산로36길 5,37.5383015,127.0746261,02-2088-1755,08:30 ~ 22:00
빽다방,서울특별시,정릉뉴타운점,서울특별시 성북구 길음로9길 50 지2층8호 (길음동 1286외2필지 길음뉴타운 상가동 208호),37.6035622,127.0198289,02-2039-3644,08:00 ~ 22:00
백스비어,서울특별시,금천롯데캐슬점,서울 금천구 시흥대로 291,37.4506854,126.9012586,-,16:00 ~ 02:00
역전우동0410,서울특별시,신도림역점,"서울 구로구 신도림동 337, 푸르지오오피스텔 상가 1층 175호",37.5093957,126.8877258,02-2672-0410,10:00~22:00	(라스트오더) 21:30
빽다방,서울특별시,신당역점,서울특별시 중구 퇴계로 423 (황학동),37.5669825,127.0198998,070-8691-1530,07:30 ~ 21:30
홍콩반점0410,서울특별시,상암DMC점,서울 마포구 월드컵북로54길 17 218호,37.5591345,126.9176776,02-6404-0410,10:00 ~ 21:00
리춘시장,서울특별시,독산점,서울 금천구 시흥대로122길 16,37.4692683,126.8991235,02-2135-9854,16:00 ~ 21:00 (거리두기 후 변경 -> 02:00)
빽다방,서울특별시,가산SKV1점,"서울특별시 금천구 가산디지털1로 171, skv1센터 102호",37.4806318,126.8805702,02-6244-8885,평일 07:00 ~ 19:00토요일 09:00 ~ 17:00
빽다방,서울특별시,북서울꿈의숲점,서울특별시 성북구 돌곶이로 220 코오롱하늘채아파트 상가 104동 106호,37.6130794,127.0539777,02-943-7555,08:00 ~ 21:00
빽다방,서울특별시,숭실대점,서울특별시 동작구 상도동 501(사당로 10) 지하1층,37.4952808,126.9554244,02-3280-3910,평일 08:00 ~ 22:00주말 및 공휴일 10:00 ~ 21:00
빽다방,서울특별시,쌍문세라믹점,서울특별시 도봉구 도당로 10,37.6590713999999,127.0352919,02) 995-5551,08:30 ~ 22:00 (주중·주말 동일)
새마을식당,경기도,새마을식당 미사역점,"경기도 하남시 미사강변중앙로 204번지 21, 미사엘큐브 1층",37.5662951,127.1897782,031-791-3002,11시 ~ 22시
홍콩반점0410,서울특별시,태릉입구역점,서울 노원구 동일로147길 32 1층,37.6562713,127.0624069,02-6326-0410,11:00 - 21:30
성성식당,서울특별시,고대안암점,"서울 성북구 고려대로24길 58-5 (안암동5가, 고려안암빌딩) 2층",37.5861565,127.0309144,02-929-0125,10:00~22:00
빽다방,서울특별시,양평중흥S클래스점,"서울특별시 영등포구 선유서로24길 6 (양평동1가, 영등포 중흥 S-CLASS) 1층 106호",37.5209864,126.8907643,02-2675-5880,평일 08:00 ~ 21:00주말 및 공휴일 09:00 ~ 21:00
빽다방,서울특별시,보광점,서울특별시 용산구 보광로 47 1층 (보광동),37.5281537,126.9988215,02-794-5565,08:00 ~ 22:00
빽다방,서울특별시,중화역점,"서울특별시 중랑구 봉화산로 39, 1층 101호",37.6017083,127.0786012,02-433-5183,08:00 ~ 22:00
홍콩반점0410,서울특별시,방학점,서울시 도봉구 방학로 174 1층,37.6625492999999,127.0327488,02-955-0410,11:00 ~ 21:40
빽다방,서울특별시,동양미래대점,"서울특별시 구로구 고척동 76-181, 1층 101호",37.5003521,126.8664117,02-3666-5444,08:00 ~ 23:00
빽다방,서울특별시,공릉역점,서울특별시 노원구 공릉동 395-8,37.6251984,127.0734333,02-975-5550,평일 08:30 ~ 22:00주말 및 공휴일 09:00 ~ 22:00
빽다방,서울특별시,개봉역북부점,서울특별시 구로구 경인로40길 41(개봉동 181-6),37.4949863999999,126.8590133,02-2688-2220,07:00 ~ 22:30
홍콩반점0410,서울특별시,아차산역점,"서울 광진구 자양로43길 48 (중곡동, 태광빌딩) 1층",37.5526557,127.0903441,02-455-3852,11:00 - 21:30
홍콩반점0410,서울특별시,망원시장점,서울특별시 마포구 월드컵로13길 9 2층,37.5555348,126.9097382,02-355-1989,11:00 ~ 22:00
역전우동0410,경기도,광명일직점,"경기 광명시 덕안로77번길 5 (일직동, 지웰에스테이트 1층)",37.4292224,126.8934631,02-897-9903,10:30~21:30 (L.O)21:20
롤링파스타,서울특별시,고덕점,"서울특별시 강동구 동남로 71길 20-9, 2층 2호(명일동, 파라빌딩)",37.5523209,127.1547888,02-442-6007,11:30 ~ 21:30 브레이크타임 15:00 ~ 17:00점심 라스트오더 : 14:30저녁 라스트오더 : 21:00
빽다방,서울특별시,연희삼거리점,서울특별시 서대문구 연희동 135-5(연희로 118),37.5682144,126.9322381,02-2039-3454,08:00 ~ 21:00
홍콩반점0410,서울특별시,신풍점,서울 영등포구 신길로 119,37.5029226,126.9094598,02-833-1681,11:00-21:00
빽다방,서울특별시,중계씨앤미점,서울특별시 노원구 중계동 509-1,37.6406859,127.0681273,02-2243-1544,08:00 ~ 22:00
빽다방,서울특별시,돈암점,서울특별시 성북구 동선동4가 98-2,37.5934084,127.0174358,02-953-2351,08:00 ~ 22:00
빽다방,서울특별시,강남역CGV점,서울특별시 강남구 테헤란로1길 48,37.5014628,127.0269512,02-566-5353,07:00 ~ 22:00
홍콩반점0410,서울특별시,정릉1호점,"서울시 성북구 정릉로38나길 1, 102호(정릉동)",37.6020027,127.0188822,02-6014-1805,11:00 - 22:00
막이오름,서울특별시,잠실새내역점,"서울 송파구 올림픽로12길 8 (잠실동, 제일빌딩) 202호",37.5088041,127.0829614,02-415-5781,15:00 - 02:00
롤링파스타,서울특별시,송파나루점,서울 송파구 오금로20길 4 (송파동) 1층,37.5092864,127.1132132,02-424-4321,11:00 ~ 21:00
리춘시장,서울특별시,연남점,"서울 마포구 동교로 217 (동교동, 홍대LJ빌딩) 1층",37.5594933,126.9235036,02-332-6320,12:00~22:00
빽다방,서울특별시,마곡역류마타워점,서울특별시 강서구 마곡동 798-2(공항대로 164) 류마타워 105호,37.5592744,126.8255825,02-6080-2912,08:00 ~ 22:00
빽다방,서울특별시,뚝섬역점,서울특별시 성동구 성수동1가 14-51,37.5462843,127.0494976,02-6349-2800,평일 07:30 ~ 20:30토요일 09:00 ~ 20:30
빽다방,서울특별시,마곡역로뎀타워점,"서울특별시 강서구 마곡동 799-1, 로뎀타워1층 127호",37.5590505,126.8279327,02­-6015-8860,07:30 ~ 21:00
역전우동0410,서울특별시,강남세곡점,"서울 강남구 헌릉로569길 13 (세곡동, 라온 프라이빗시티)",37.4647324,127.1194405,02-445-0609,11:00 ~ 20:30 (L.O 20:20)
빽다방,서울특별시,석촌고분역점,서울특별시 송파구 삼전동 101-9 (백제고분로 257),37.5027328,127.0951281,02-422-8526,08:00 ~ 21:30
홍콩반점0410,서울특별시,구로항동점,서울 구로구 서해안로 2108 (항동) 1층,37.4911149,126.8395931,02-2611-4180,11:00 ~ 22:00
빽다방,서울특별시,삼양동사거리점,서울특별시 강북구 삼양로 169 (미아동),37.6188943,127.0208193,미등록,"평일 08:00 ~ 22:00주말, 공휴일, 명절 09:00~22:00(아이스크림 마감 20:30)"
빽다방,서울특별시,봉화산역점,서울특별시 중랑구 신내로 211,37.6163947,127.0926039,02-3421-7971,평일 08:00 ~ 21:30주말 08:30 ~ 21:30
백스비어,서울특별시,방배역점,서울특별시 서초구 효령로31길 17 (방배동) 1층,37.4818932,126.9961793,02-6958-8988,15:00 ~ 22:00
홍콩반점0410,서울특별시,성수역점,"서울시 성동구 아차산로 96, 1층",37.5447192,127.0546652,02-6956-3366,11:00 - 23:00
롤링파스타,서울특별시,동대문점,"서울특별시 중구 을지로 43길 30, 2층 201호(을지로5가, 미진빌딩)",37.5674266,127.0074797,02-2266-1117,11:00 ~ 21:00
빽다방,서울특별시,구일역점,"서울특별시 구로구 구일로 8길 56, 구일프라자 1층 102호(구로동)",37.4956173,126.8740612,02-858-1236,07:30 ~ 22:30
인생설렁탕,서울특별시,구로구청점,"서울 구로구 가마산로 265(구로동, 한솔로이젠트) 1층",37.4960141,126.8897579,02-867-7755,08:00 ~ 21:00
빽다방,서울특별시,거여역점,서울특별시 송파구 거여동 27-5 1층,37.4926974,127.1455368,02-401-0119,평일 07:30 ~ 22:00토요일 08:00 ~ 22:00일요일 및 공휴일 09:00 ~ 21:00
새마을식당,서울특별시,청량리점,서울 동대문구 왕산로 270 (전농동),37.5845818,127.0509062,02-959-8480,11:00 ~ 24:00
빽다방,서울특별시,수락산역점,"서울특별시 노원구 상계동 1258, 오피앙상가 103호",37.6805540999999,127.0548996,02-939-0726,07:30 ~ 22:00
빽다방,서울특별시,성수뚝도점,서울특별시 성동구 성수동2가 339-23,37.5389889,127.0547093,02-467-4807,08:00 ~ 24:30
빽다방,서울특별시,중곡시장점,서울특별시 광진구 중곡동 192-5(서울 광진구 면목로 145),37.5664211,127.0812965,02-6489-0393,08:00 ~ 22:00
홍콩반점0410,서울특별시,종암점,서울시 성북구 종암로 98 1층,37.598939,127.0346974,02-942-0410,10:30 ~ 21:00
홍콩반점0410,서울특별시,북가좌점,서울 서대문구 거북골로18길 6 (북가좌동) 1층,37.5776443,126.9105163,02-376-0410,11:00 ~ 20:30 (브레이크타임 평일 14:00 ~ 16:00)
새마을식당,서울특별시,동대문점,서울 중구 을지로43길 30 1층,37.5674266,127.0074797,02-6952-0888,11:00 ~ 22:00
한신포차,서울특별시,개봉역점,"서울 구로구 남부순환로 97길 12 (개봉동, 진영빌딩) 2층",37.4940971,126.8586221,02-6449-0988,17:00~ 02:00
빽다방,서울특별시,미아역점,서울특별시 강북구 도봉로 190 비전빌딩,37.6258469,127.0268455,02-980-8881,08:00 ~ 22:00
빽다방,서울특별시,먹골역점,서울특별시 중랑구 묵동 174-4번지,37.6121738,127.0782512,02-979-2208,08:00 ~ 22:00
새마을식당,서울특별시,성신여대점,서울시 성북구 보문로34길 56 (동선동2가),37.590766,127.0185587,02-3291-0300,11:30 - 22:00
인생설렁탕,서울특별시,건대점,"서울 광진구 아차산로 207 (화양동, 선일빌딩) 1층",37.5414839,127.0667394,02-3409-0410,11:00 ~ 22:00
성성식당,서울특별시,반포중앙점,서울 서초구 강남대로83길 33 (반포동) 1층,37.5055667,127.0218807,02-512-4476,11:30~22:00
빽다방,서울특별시,행당무학점,서울특별시 성동구 행당동 317-63,37.5582993,127.0323664,02-2299-0226,08:30 ~ 21:30
인생설렁탕,서울특별시,장위뉴타운점,서울 성북구 장월로 140 (장위동) 2층,37.6174705,127.0506797,02-943-2514,11:00 ~ 22:00
성성식당,서울특별시,성신여대점,서울 성북구 동소문로 20나길 13(동선동1가)2층,37.5921626,127.0173763,02-6012-1460,09:00 - 21:00
빽다방,서울특별시,금호금남시장점,서울특별시 성동구 금호동 4가 567,37.5479543,127.0217401,02-6015-1838,"월~목 08:00 ~ 21:00금, 토 08:00 ~ 22:00일요일 08:30 ~ 22:00"
빽다방,서울특별시,신용산해링턴점,서울 용산구 서빙고로 17(한강로3가) 해링턴스퀘어 판매시설동 1층 9호,37.5321145,126.9650371,02-797-9110,07:00 ~ 22:00
역전우동0410,서울특별시,문래점,서울 영등포구 문래동3가 83-3 104호,37.5198717,126.8905591,02-2678-0410,10:00~22:00 (L.O 21:30)
빽다방,서울특별시,장위뉴타운점,서울 성북구 장월로 140,37.6174705,127.0506797,02-941-1016,평일 08:30 ~ 22:00주말 09:00 ~ 22:00
홍콩반점0410,서울특별시,명일동점,"서울시 강동구 명일동 337-30 , 1층",37.5477322,127.1449418,02-6401-0410,11:00~21:00
빽다방,서울특별시,경복궁역점,"서울특별시 종로구 사직로 127 (적선동), 1층~3층",37.5761941,126.9740151,02-722-0430,09:00 ~ 20:00
홍콩반점0410,서울특별시,광운대동문점,서울 노원구 석계로13길 23,37.6201758,127.0615516,02-6013-0410,10:30 - 21:00
빽다방,서울특별시,상봉역점,"서울특별시 중랑구 상봉동 113-4, 102호",37.5946937,127.0856632,02-433-0993,07:30 ~ 22:00
빽다방,서울특별시,송파사거리점,서울시 송파구 가락로 113 금도빌딩 1층,37.5016284,127.1086253,02-422-4772,08:00 ~ 22:00
홍콩반점0410,서울특별시,응암점,"서울특별시 은평구 응암로29길 4, 1층(응암동)",37.59621,126.9187499,02-6083-0410,11:00~21:00
빽다방,서울특별시,도봉구민회관점,서울특별시 도봉구 도봉로 551,37.6544377,127.0377487,02- 902-1711,08:00 ~ 21:30
빽다방,서울특별시,용답로데오점,서울특별시 성동구 용답중앙15길 18,37.5647541,127.0542378,02-2215-2284,07:30 ~ 23:00
빽다방,서울특별시,동묘역점,서울시 종로구 종로334,37.5725262,127.0147692,02-745-7080,평일 07:30 ~ 19:00주말 09:00 ~ 19:00
빽다방,서울특별시,홍대거리점,서울특별시 마포구 어울마당로 75,37.5518097,126.921284,02-336-3221,09:00 ~ 23:00
홍콩반점0410,서울특별시,상일동역점,서울 강동구 상일로17길 29-5 (고덕동) 지층,37.5585587,127.1692321,02-427-0410,11:00 ~ 21:30
빽다방,서울특별시,대림역점,서울시 영등포구 도림로 144,37.493308,126.8980447,02-832-8188,08:00 ~ 22:00
빽다방,서울특별시,석계중앙점,서울 성북구 한천로78길 63,37.6132127,127.0648525,02-960-7686,평일 08:30 ~ 21:30주말 09:00 ~ 21:30
빽다방,서울특별시,화양사거리점,서울특별시 성동구 성수동2가 281-16(아차산로17길 57),37.5436254,127.0641744,02-6466-5599,07:30 ~ 22:00
빽다방,서울특별시,신정네거리역점,서울특별시 양천구 중앙로 276,37.5208002,126.8528758,02-2643-0101,월-토 07:40 ~ 21:30일요일 09:00 ~ 21:30
빽다방,서울특별시,강동구청점,서울특별시 강동구 성내동 319-27,37.5305882,127.1218982,02-483-6345,07:30 ~ 21:00
빽다방,서울특별시,가오리역점,서울특별시 강북구 수유동 339-6,37.6421481,127.0162798,02-991-0037,08:00 ~ 21:00
홍콩반점0410,서울특별시,관악난곡점,"서울특별시 관악구 난우길 20, 2층",37.4747474,126.918621,02-864-0410,11:00 ~ 21:00
리춘시장,서울특별시,성신여대점,서울 성북구 동소문로20다길6 1층,37.5915572,127.0171646,02-6080-0410,17:00 ~ 21:00
홍콩반점0410,서울특별시,선릉역점,"서울 강남구 선릉로 76길 22, 2층",37.5016442,127.0522477,02-538-0411,11:00 ~ 21:30
백스비어,서울특별시,발산역점,"서울특별시 강서구 마곡중앙6로 85, 1층 105호",37.5531967999999,126.8298352,미등록,16:00 - 01:00
본가,서울특별시,구로디지털단지역점,"서울시 구로구 디지털로 32길 97-22, 1층",37.4837024,126.9012805,02-868-1470,11:30 ~ 21:30
빽다방,서울특별시,상도e편한점,서울특별시 동작구 만양로6 이편한세상 상도노빌리티 1층 106호,37.505273,126.9477205,02-817-5588,08:00 ~ 22:00아이스크림 마감 20:00
빽다방,서울특별시,방학역점,서울특별시 도봉구 도봉로 153길 20,37.669979,127.0423384,02-954-8748,07:30 ~ 22:00
빽다방,서울특별시,수유역점,서울특별시 강북구 번동 418-3 (도봉로 352),37.6386636,127.0270104,02-998-3344,07:30 ~ 23:00
역전우동0410,서울특별시,신촌점,서울 서대문구 창천동 18-83 2층,37.5560251,126.937015,02-392-0410,10:00~21:40	(라스트오더) 21:20
역전우동0410,서울특별시,가산센트럴점,"서울시 금천구 가산동 233-5, 가산센트럴푸르지오시티 1층",37.475579,126.8908219,02-862-0101,평일 운영시간 11:00~22:00 (L.O 21:30) 주말 운영시간 11:00~21:00 (L.O 20:30)
막이오름,서울특별시,홍대점,서울 마포구 와우산로17길 11(서교동) 2층,37.550061,126.9223922,02-323-7339,12시~21시(코로나 2.5단계 중)
빽다방,서울특별시,망우역사거리점,"서울특별시 중랑구 망우동 479, 한일씨너스빌리젠시 1단지",37.5974228,127.0936248,02-433-8825,월 ~ 목요일 07:30 ~ 23:00금요일 07:30 ~ 23:30주말 09:00 ~ 23:30
빽다방,서울특별시,세종대후문점,서울특별시 광진구 군자로 108,37.5525781,127.0720356,02-463-6665,08:00 ~ 21:00
새마을식당,서울특별시,신정네거리역점,"서울특별시 양천구 중앙로 36길 15(신정동, 목동힐스테이트)",37.5201132,126.8560477,070-4241-0410,11:30~22:00(브레이크 타임: 15:00~16:00)
한신포차,서울특별시,당산역점,서울특별시 영등포구 양평로 53 (당산동 5가),37.5350025,126.8995801,02-2632-8008,16:00 ~ 06:00
빽다방,서울특별시,돈암아리랑점,서울특별시 성북구 아리랑로 75,37.5991068,127.0137948,02-924-3050,08:30 ~ 22:00
역전우동0410,서울특별시,강변역점,"서울시 광진구 강변역로 4길 10, 지너스타워 107호",37.535315,127.0933914,02-455-8883,9:00 ~ 23:00 (라스트오더 22:30)
막이오름,서울특별시,건대점,서울 광진구 동일로22길 69-3,37.5416578,127.0680815,02-461-0410,15:00~04:00
막이오름,서울특별시,가로수길본점,서울 강남구 도산대로13길 10 2층,37.5185204,127.0234356,02-544-3864,평일 16:00 - 01:00 / 주말 15:00 - 01:00
롤링파스타,서울특별시,한양대점,"서울시 성동구 마조로5길 8 , 2층",37.5600872,127.0402266,02-2293-0123,10:30~22:00 (라스트오더 21:30)
미정국수0410,서울특별시,안국역점,"서울특별시 종로구 계동길 15, 1층(계동)",37.5779281,126.9865816,02-730-0412,"평일 07:00 ~ 20:00주말, 공휴일 09:00 ~ 20:00*아이스크림 마감 19:00"
빽다방,서울특별시,암사역점,서울특별시 강동구 올림픽로 770,37.5497593,127.1276646,02-488-0079,08:00 ~ 22:00
홍콩반점0410,서울특별시,창동역점,서울특별시 도봉구 마들로11길 73,37.6531058,127.0490556,02-998-0410,11:00 ~ 21:00
빽다방,서울특별시,강변역점,서울특별시 광진구 강변역로4길 10,37.535315,127.0933914,02-447-0423,"평일 08:00 ~ 21:00주말, 공휴일 09:00 ~ 21:00"
인생설렁탕,서울특별시,고대안암역점,"서울특별시 성북구 고려대로 24길 24, 1층",37.589116,127.0182146,02-6402-0121,11:00~22:00
역전우동0410,서울특별시,우면점,"서울시 서초구 우면동 721, 우면프라자 2차 102호",37.4651959,127.0164423,02-578-0410,10:30~22:00	(라스트오더) 21:30
새마을식당,서울특별시,당산역점,"서울시 영등포구 양평로 77, 1층(양평동4가)",37.5358711,126.8956276,02-2675-3636,11:00 ~ 22:30
홍콩반점0410,서울특별시,양천구청점점,"서울특별시 양천구 목동서로 377, A동 1층",37.5159622,126.8623488,02-6094-3791,11:00 ~ 22:00(마지막 주문 21:00)
새마을식당,서울특별시,건대점,서울 광진구 동일로22길 69 (화양동),37.5415222,127.068022,02-468-0410,평일 : 11:00 ~ 01:00  주말 : 11:00 ~ 02:00
새마을식당,서울특별시,응암역점,서울시 은평구 진흥로 17,37.600099,126.9173891,02-6951-0660,11:30 ~ 23:00
빽다방,서울특별시,동대문역점,"서울특별시 종로구 종로 289, 1층(창신동)",37.5745846,127.008896,02-766-0950,08:00 ~ 22:30
리춘시장,서울특별시,신림역점,서울특별시 관악구 신림로59길 24,37.482951,126.9283691,02-875-1802,17:00 ~ 익일 02:00
빽다방,서울특별시,연신내사거리점,서울특별시 은평구 통일로 840,37.6123992,126.9292744,02-356-9548,월~토 08:00 ~ 22:30일요일 08:00 ~ 22:00
홍콩반점0410,서울특별시,상봉역점,서울특별시 중랑구 망우로 305,37.5968606,127.086118,0507-1368-5572,11:00 ~ 22:00 주문마감 21:30 (브레이크타임 15:30 ~ 17:00)
빽다방,서울특별시,월곡래미안점,서울특별시 성북구 하월곡동 77-221(월곡1동주민센터 옆),37.6108223,127.0356402,02-910-8800,평일 08:00 ~ 22:00주말 09:00 ~ 22:00
빽다방,서울특별시,답십리사거리점,서울특별시 동대문구 답십리동 243-2 (전농로 97-1),37.5736428,127.0572691,02-2245-8993,08:00 ~ 21:00
빽다방,서울특별시,송정역점,서울특별시 강서구 공항동 45-39(공항대로 23),37.5615082,126.8116509,02-2665-9560,08:00 ~ 21:00 (라스트오더 20:40)
롤링파스타,서울특별시,연신내점,서울시 은평구 연서로 217 2층,37.618066,126.9196093,02-386-7311,11:30~22:00
홍콩반점0410,서울특별시,고척동양대점,"서울 구로구 경인로47길 23, 2층",37.5003521,126.8664117,02-2614-0410,11:00 ~ 22:00
빽다방,서울특별시,쌍문역점,서울특별시 도봉구 도봉로 479,37.6486098,127.0343291,02-902-7971,평일 08:00 ~ 22:00주말 09:00 ~ 22:00아이스크림 마감 21:00
빽다방,서울특별시,가산두산위브점,"서울특별시 금천구 가산로 99, 두산위브아파트 상가동",37.4747961,126.8914134,02-830-4559,09:00 ~ 22:00
빽다방,서울특별시,선정릉역점,"서울특별시 강남구 선릉로 567, 1층 일부호(역삼동)",37.5090479,127.0440555,02-568-9365,평일 07:40 ~ 19:00 (아이스크림 마감 18:00)토요일 09:00 ~ 14:00 (아이스크림 마감 13:00)
롤링파스타,서울특별시,대치점,"서울시 강남구 도곡로 442, 201호(대치동, 진흥빌딩)",37.4979285,127.058811,02-554-0619,11:30~22:00
빽다방,서울특별시,송파하비오점,"서울시 송파구 문정동 618 파크하비오 204동 117,118호",37.4851331,127.1238462,02-400-3379,08:00 ~ 21:30
빽다방,서울특별시,구산역점,서울특별시 은평구 연서로 129 (구산동 1-15),37.6104407,126.9166729,02-353-6011,"월 ~ 토 08:00 ~ 22:00일요일, 공휴일 09:00 ~ 22:00"
롤링파스타,서울특별시,이마트월계점,서울시 노원구 마들도 3길 15 이마트월계점 2층 전문식당가,37.62644,127.0619091,미등록,11:00~22:00
인생설렁탕,서울특별시,장한평역점,"서울특별시 동대문구 장한로2길 36, 1층 102호",37.5617314,127.0671874,02)3288-0410,11:00~22:00 (마지막주문 21:00)
한신포차,서울특별시,영등포역점,서울특별시 영등포구 영중로10길 35,37.5186253,126.909203,02-2679-0410,평일 17:00 ~ 03:00 / 주말 17:00 ~ 04:00
빽다방,서울특별시,개봉역점,서울시 구로구 개봉동 203-7,37.4940701,126.8582707,02-2613-2220,평일/주말 AM7:30~PM22:30
빽다방,서울특별시,합정역점,서울 마포구 월드컵로1길 14 (합정동) B-112-1호,37.5495927,126.9121968,02-336-7106,"평일 07:30 ~ 21:00(아이스크림 마감 19:30)주말, 공휴일 09:00 ~ 20:00 (아이스크림 마감 18:30)"
빽다방,서울특별시,마포경찰서점,서울시 마포구 아현동 618-8 (마포대로 179),37.5502873999999,126.9547873,02-363-6383,"평일 07:30 ~ 21:00주말,공휴일 08:30 ~ 21:00"
빽다방,서울특별시,선유도역점,서울시 영등포구 양평동4가 114-1,37.5377339,126.8944154,02-2631-1600,07:30~22:30
홍콩반점0410,서울특별시,약수역점,"서울특별시 중구 다산로 128, 지하 1층",37.5549887,127.0110298,02-2234-0410,11:00 ~ 22:00(마지막 주문 21:30) / 브레이크타임 15:00 ~ 16:002/24 매장내부수리로 인한 휴무
빽다방,서울특별시,굽은다리역점,서울시 강동구 명일동 346-1,37.5461317,127.1434188,02-428-8797,평일 08:00 ~ 21:30주말 09:00 ~ 21:30
빽다방,서울특별시,창동역점,"서울 도봉구 마들로11길 57, 102호",37.6534668,127.0501423,02-995-7711,평일 08:00 ~ 21:00주말 09:00 ~ 21:00
홍콩반점0410,서울특별시,방화사거리점,서울 강서구 금낭화로 95,37.5739226,126.8113076,02-2663-9275,11:00 ~ 22:00
빽다방,서울특별시,강서블루나인점,"서울특별시 강서구 양천로 583 (염창동,우림블루나인비즈니스센터) 지하1층",37.556904,126.8642901,02-2093-2066,평일 08:00 ~ 21:00(아이스크림 마감 20:00)주말 09:00 ~ 21:00(아이스크림 마감 19:30)
롤링파스타,서울특별시,구로디지털역점,서울시 구로구 구로동 1124-72 2층,37.4834102,126.8997098,02-868-0410,11:30~21:30 (브레이크타임 14:30~16:00) 점심주문마감시간 14:00 저녁주문마감시간 21:00
빽다방,서울특별시,상왕십리역점,서울 성동구 하왕십리동 946-16,37.5639923,127.0295342,02-2291-7080,월~토 08:00 ~ 21:30일요일 08:00 ~ 21:00
인생설렁탕,서울특별시,종각역점,서울특별시 종로구 관철동 13-13 코아빌딩1,37.5693255,126.9860066,02-723-3038,11:00~22:00(L.O:21:30)
역전우동0410,서울특별시,망우역점,서울시 중랑구 용마산로 115길 127,37.5973272,127.093464,02-494-0410,11:00~22:00  (마지막주문 21:30 )
역전우동0410,서울특별시,대흥역점,서울 마포구 백범로 129,37.5463535,126.945771,02-701-0410,10:00~22:00 (마지막 주문 21:30)
빽다방,서울특별시,낙성대역점,서울시 관악구 봉천동 1686-11,37.4776503,126.9626084,02-884-5585,07:30~22:30
리춘시장,서울특별시,신촌점,서울특별시 서대문구 연세로9길 10-4(창천동 33-13),37.558649,126.9364345,02-6084-2673,17:00 ~ 03:00
빽다방,서울특별시,올림픽북단점,서울 광진구 구의동 199-8,37.5404369,127.0951999,02-455-0423,오전 8:30 ~ 오후 10:30
새마을식당,서울특별시,방배역점,서울특별시 서초구 효령로31길 28. 1층,37.4824256,126.9962751,02-3471-2300,11:00 ~ 06:00
롤링파스타,서울특별시,가로수길점,강남구 신사동 541-9 2층,37.5189774,127.0233448,02-543-5688,11:30~21:00
빽다방,서울특별시,구로KT점,서울특별시 관악구 신림동 1668-15,37.480112,126.9038296,02-858-4366,월~토 08:00~22:00일요일 8:30~22:00
미정국수0410,서울특별시,이수역점,"서울특별시 동작구 동작대로27길 9, 1층 (사당동)",37.4874357,126.9813567,02-535-0410,AM10:00 - PM22:00
빽다방,서울특별시,오류동역남부점,서울 구로구 오류동 148-2,37.4923449,126.8438474,02-2060-6610,08:00 ~ 22:00
홍콩반점0410,서울특별시,삼양사거리점,서울시 강북구 삼양로 24길 19 101동 101호,37.6171833,127.0220243,02-981-1010,10:30 - 21:30
홍콩반점0410,서울특별시,답십리역점,서울시 동대문구 답십리동494-1 / 206-207호,37.5668543,127.0532151,02-2212-5932,10시30분~22시30분마지막 주문 : 21시40분
롤링파스타,서울특별시,홍대점,서울시 마포구 서교동 344-15 2층,37.5532682,126.9240187,02-336-2385,11:30~22:00
빽다방,서울특별시,구의역점,서울 광진구 아차산로 380,37.5365801,127.0849871,02 444 4855,07:30 ~ 23:00
홍콩반점0410,서울특별시,염창역점,"서울시 강서구 염창동 282-20, 2층",37.547222,126.875259,02-3663-5704,오전 11시 ~ 오후 10시
한신포차,서울특별시,사가정역점,"서울 중랑구 사가정로 51길 39, 2층",37.5825654,127.0877272,02-493-7300,17:00~익일 16:00
홍콩반점0410,서울특별시,목동 파리공원점,서울 양천구 목동907-23 현대파크빌 1층,37.5421191,126.8671755,02-2654-3999,11:00~21:30
롤링파스타,서울특별시,신촌점,서울시 서대문구 창전동 18-1,37.5573482,126.9375576,02-363-1999,11:30~22:00
빽다방,서울특별시,방이시장점,서울 송파구 백제고분로48길 6,37.5115321,127.1138586,02-415-1500,평일 08:30 ~ 22:00주말 09:00 ~ 22:00
리춘시장,서울특별시,연신내역점,서울시 은평구 연서로29길 14-5,37.6192689,126.9187287,-,17:30 ~ 12:00
리춘시장,서울특별시,대학로CGV점,서울특별시 종로구 혜화동 167-3,37.5839877,127.0012885,02-3673-0410​,11:30~23:30
롤링파스타,서울특별시,대학로점,서울시 종로구 동숭동 1-97 2층,37.5815685,127.0035399,-,11:00~22:00  [점심]라스트오더 14:30 / [저녁]라스트오더 21:00  브레이크타임 15:00~17:00
롤링파스타,서울특별시,노원역점,서울시 노원구 상계로 70 2층,37.6559626,127.0627527,02-930-0410,11:30~22:00 (브레이크타임 14:30~16:00 주중_토일 제외)
역전우동0410,서울특별시,양천향교역점,서울특별시 강서구 마곡동 776-3,37.5764888,126.8307466,02)3663-0140,10:00~22:00	(라스트오더) 21:30
빽다방,서울특별시,신림난곡점,서울 관악구 난곡로 178,37.4709184,126.9200486,02-868-6863,08:00 ~ 22:30
인생설렁탕,서울특별시,경희대점,"서울시 동대문구 경희대로 9-1, 1층",37.5924758,127.0522542,02-969-7771,09:00 ~ 22:00
한신포차,서울특별시,발산역점,"서울 강서구 마곡중앙6로 93(마곡동, 열린프라자)",37.5813955,126.827955,02-3661-9275,16:00 ~ 05:00 (영업 종료 시간은 사회적거리두기 규제에 따름)
롤링파스타,서울특별시,종로점,서울시 종로구 삼일대로 392 효원빌딩 1층,37.5695085,126.9880077,02-2261-5973,11:30~22:00
빽다방,서울특별시,응암대림시장점,서울 은평구 응암로 169,37.5871656,126.9162098,02-304-8860,평일 08:40 ~ 21:00주말 09:00 ~ 22:00
롤링파스타,서울특별시,성신여대점,서울시 성북구 동선동 1가 104 2층,37.5927635,127.0175813,02-927-7779,11:00 - 22:00
리춘시장,서울특별시,영등포역점,"서울특별시 영등포구 영중로4길 3, 1층(영등포동3가)",37.5175237,126.9081241,02-2634-0410,16:00-02:00
빽다방,서울특별시,양재시민의숲역점,서울시 서초구 마방로2길 94,37.4694374,127.039803,02-573-0421,평일 07:00 ~ 22:00토 08:00 ~ 21:00일 08:00 ~ 20:00
빽다방,서울특별시,화곡역점,서울시 강서구 화곡로25길2,37.542109,126.837998,02-2606-1117,08:00 ~ 22:00
빽다방,서울특별시,보라매타운점,서울특별시 동작구 보라매로 5가길 7,37.4917153,126.9251103,02-832-9706,08:00 ~ 22:00
새마을식당,서울특별시,종각본점,서울특별시 종로구 우정국로2길 42(관철동) 1층,37.5693902999999,126.9853729,02-730-5252,월~토 11 : 30 ~ 24 : 00 / 일 11 : 30 ~ 22 : 00
리춘시장,서울특별시,샤로수길점,서울 관악구 관악로14길 22(봉천동 1604-1),37.4789734,126.9537553,02-6448-0410,11:30 - 22:00
빽다방,서울특별시,노원문화의거리점,서울특별시 노원구 노해로79길 6-19,37.6555926,127.0623312,02-939-1350,08:00 ~ 24:00
역전우동0410,서울특별시,발산역점,"서울특별시 강서구 공항대로 269-15(마곡동), 힐스테이트에코마곡 124호",37.5595252,126.8372531,02)3664-0410,10:30~22:00 (L.O 21:30)
한신포차,서울특별시,경희대점,"서울시 동대문구 경희대로1길 10, 1층",37.5918034,127.0516626,02-969-1109,15:00~06:00 (월요일-15:00~05:00/화요일:15:00~04:00)
빽다방,서울특별시,봉천역점,서울시 관악구 남부순환로 1729(봉천동 926-36),37.4825442,126.9422235,02-882-5585,평일 07:00 ~ 23:00(마지막 주문 22:30)주말 08:00 ~ 23:00
역전우동0410,서울특별시,마곡나루역점,"서울 강서구 마곡중앙5로 6, 마곡나루역보타닉푸르지오시티 1층 114호 (마곡동)",37.5673603,126.8275954,02)3661-0410,09:00~22:00 (마지막 주문 21:30)
새마을식당,서울특별시,발산역점,서울시 강서구 마곡동 797-7 매그넘797 108.109호,37.5764888,126.8307466,02-3661-1666,11:30 ~ 익일 02:00
한신포차,서울특별시,노량진점,"서울시 동작구 만양로 106, 2층",37.5129105,126.9444555,02-822-3380,17:00~04:00
원조쌈밥집,서울특별시,창신점,서울 종로구 창신길 9-4,37.5722342,127.0103411,02-764-7971,10:00 ~ 22:00
역전우동0410,서울특별시,위례중앙점,"서울 송파구 장지동 896, 중앙푸르지오 2단지 113호",37.4773867,127.1285282,02)431-0410,11:00~22:00	(라스트오더) 21:50
빽다방,서울특별시,장안동사거리점,서울 동대문구 장한로 140,37.5728009,127.0721334,02-2212-0423,09:00 ~ 22:00
빽다방,서울특별시,신논현역점,"서울시 서초구 사평대로 367, 1층",37.5043396,127.0230911,02-548-0410,평일 07:30 ~ 21:30주말 10:00 ~ 21:00
홍콩반점0410,서울특별시,방이초교점,"서울특별시 송파구 위례성대로12길18(방이동,수빌딩)",37.5120357,127.1218102,02-422-1212,10:00~22:00(주문가능 시간 11:00~21:00/브레이크타임 15:00~17:00)
새마을식당,서울특별시,한양대점,서울시 성동구 마조로1길 29 지층,37.5606754,127.039547,010-6214-1468,11:00 ~ 22:00
백스비어,서울특별시,사당역남현점,"서울특별시 관악구 남현1길 58, 2층(사당역 5번 출구)",37.4756329999999,126.9805356,02-523-6881,16:00 ~ 익일 03:00
한신포차,서울특별시,마곡나루역점,서울시 강서구 마곡중앙로 161-8 두산더랜드파크 c219~222호,37.5452946,126.8747033,02-6989-9275,pm 18:00 ~ am 5:00
한신포차,서울특별시,까치산역점,"서울특별시 강서구 강서로 17-1,1층(화곡동)",37.5295122,126.8476908,010-8867-2221,pm 17:00 ~ am 4:00
역전우동0410,서울특별시,홍대입구역점,서울특별시 마포구 어울마당로 127-1 1층 (동교동),37.5559149,126.9240531,02-3144-0417,10:00~22:00	(라스트오더 21:30)
백스비어,서울특별시,미아사거리역점,"서울시 강북구 도봉로8길 2, 2층",37.6119214,127.032195,02-984-0410,16:00 - 02:00
빽다방,서울특별시,응암역점,"서울특별시 은평구 은평로 56, 1층(신사동, 안건빌딩)",37.598482,126.9140967,02-303-3319,08:00 ~ 22:00
롤링파스타,서울특별시,건대지점,"서울특별시 광진구 능동로 127, 2층(화양동)",37.5448603,127.0726813,02-3443-3864,11:30~22:00 (브레이크 타임 15:30~17:00)
역전우동0410,서울특별시,보라매공원점,"서울 동작구 보라매로5가길 16, 아카데미타워 1층",37.4912431,126.9240825,02)833-0410,11:00~21:00 (브레이크타임15:00~17:00)
빽다방,서울특별시,빽다방 빵연구소 신사사거리점,서울시 서초구 강남대로 605,37.5157069,127.0191444,02-517-0410,07:30 ~ 21:30(21시 이후 Take-Out 주문만 가능)
홍콩반점0410,서울특별시,발산역점,서울시 강서구 공항대로 269-15 2층,37.5593184,126.8374706,02-6398-0410,11:00 ~ 21:00
홍콩반점0410,서울특별시,사가정역점,"서울특별시 중랑구 면목로 337, 2층(면목동)",37.5820254,127.0884981,02-6013-1805,11:00~22:00 / 마지막주문 21:30
홍콩반점0410,서울특별시,마포서부법원점,서울시 마포구 마포대로 14길 11 1층 102호,37.5486301,126.9559874,02-701-1214,11:00 ~ 22:00
빽다방,서울특별시,신대방역점,서울시 관악구 난곡로 363,37.4862891,126.9134444,02-851-5975,화 ~토요일 10:00 ~ 20:30(아이스크림 마감 20:30)일요일 10:00 ~ 18:00(아이스크림 마감 18:00)
역전우동0410,서울특별시,관악구청점,"서울특별시 관악구 관악로148, 1층 (봉천동)",37.4784177,126.9525726,02-882-7788,09:00 ~ 21:30 ( L.O 20:30 )
빽다방,서울특별시,KBS본관점,서울특별시 영등포구 의사당대로 38,37.5256409,126.9186176,02-783-0783,평일 07:00 ~ 21:00주말 08:00 ~ 21:00
홍콩반점0410,서울특별시,신정네거리역점,"서울특별시 양천구 중앙로 254, 2층",37.5191308,126.8536435,02-2655-0410,11:00 ~ 21:30
홍콩반점0410,서울특별시,등촌시장점,"서울특별시 양천구 목동중앙북로7길10, 2층",37.5483312,126.8673433,02-2644-7703,월~토 10:30 ~ 21:00(마지막 주문 20:30)브레이크타임 14:30 ~ 16:30
역전우동0410,서울특별시,신대방삼거리역점,"서울시 동작구 국사봉1길 28, 1층",37.4988392,126.9300703,02-825-5066,10:00~22:00	(라스트오더) 21:30
새마을식당,서울특별시,마곡나루역점,서울특별시 강서구 마곡중앙로 165 안강프라이빗타워1차 1층 새마을식당,37.5764888,126.8307466,02-3662-9375,월~토 : 11:00 ~ 00:30 / 일 : 11:00 ~ 11:30
빽다방,서울특별시,발산역플레이스점,서울특별시 강서구 강서로 395. 플레이스 H 108호,37.5535944,126.8412653,02-2659-2119,평일 08:00 ~ 22:00주말 09:00 ~ 22:00아이스크림 마감 21:00마지막 주문 21:50
역전우동0410,서울특별시,우장산역점,"서울특별시 강서구 강서로 247, 1층 6호",37.5477399,126.8360088,02-2697-0410,10:00~23:00	(라스트오더) 22:30
미정국수0410,서울특별시,동여의도점,"서울특별시 영등포구 국제금융로 86, 지하1층 101호 (여의도동 롯데캐슬아이비)",37.5199092999999,126.9317832,02-785-0410,11:00~21:00 (L.O 20:00 / B.T 15:00~16:00)
홍콩반점0410,서울특별시,마곡나루역점,서울특별시 강서구 마곡중앙로 161-11,37.5531967999999,126.8298352,02-3662 9275,10:00 ~ 22:00 (주문 가능 시간-10:30 ~ 21:30)
역전우동0410,서울특별시,한티역점,"서울특별시 강남구 선릉로64길 17, 1층",37.4981873,127.0536553,02-3452-0410,"10:00~22:00	(라스트오더 21:20, 브레이크타임 14:30~17:00)"
한신포차,서울특별시,성신여대점,대한민국 서울시 동소문로20길 성북구 29-18,37.5912844,127.0169244,02-922-0120,17:00 ~ 익일 06:00
빽다방,서울특별시,마곡나루역북부점,"서울특별시 강서구 마곡중앙5로 1길 20, 1층",37.560518,126.9218568,02-3662-0504,08:00 ~ 22:00
빽다방,서울특별시,노원역북부점,"서울특별시 노원구 상계로3길 21, 101호",37.657176,127.0622614,02-937-5876,08:00 ~ 22:00
홍콩반점0410,서울특별시,우장산역점,서울특별시 강서구 내발산동 722-20,37.5480716,126.8353779,02-2604-0410,10:00~22:00(주문가능시간 11:00~21:30)재료준비시간 : 15:00~16:45
빽다방,서울특별시,사가정역점,서울특별시 중랑구 면목로 330-1 1층,37.5814507,127.0887598,02-432-2337,08:30 ~ 22:30
역전우동0410,서울특별시,장지역하비오점,서울시 송파구 송파대로 111 파크하비오 202동 131호,37.4856859,127.1193237,02-407-0410,09:10~21:10	(라스트오더) 21:10
빽다방,서울특별시,약수역점,서울특별시 중구 다산로 131,37.5556662,127.010807,02-6082-0950,평일 08:00 ~ 22:00주말 09:00 ~ 22:00
역전우동0410,서울특별시,역삼테헤란로점,"서울특별시 강남구 테헤란로 10길 25, 104호",37.4975512,127.0329687,02-553-2111,"""월~금 08:30~20:00 주말,공휴일 11:30~20:00"" (라스트오더)20:00 (브레이크타임)주말,공휴일 16:00~17:00"
새마을식당,서울특별시,서초교대점,서울시 서초구 서초대로 54길 24,37.4929839,127.0159552,02-544-3284,영업시간 11:30 ~ 22:00(브레이크타임 15:00~17:00)
홍콩반점0410,서울특별시,문배지점,서울특별시 용산구 백범로90길 38 201호~202호,37.5478001,126.9414967,02-719-3864,11:00 ~ 22:00(마지막 주문 21:30 / 평일 브레이크 타임 : 14:00~15:00)
빽다방,서울특별시,구파발역미켈란점,서울시 은평구 진관동 87-3 웅신미켈란의아침 101호,37.6355533,126.9193482,02-386-0202,08:00 ~ 22:00
빽다방,서울특별시,신설동역1호점,서울특별시 동대문구 왕산로 20,37.5761308,127.0257857,02-6104-7979,07:30 ~ 23:00
홍콩반점0410,서울특별시,낙성대역점,서울특별시 관악구 남부순환로 1922,37.4770277999999,126.9626283,02-877-0412,11:00 - 22:00 / 주문마감 21:30
빽다방,서울특별시,방이역코오롱점,"서울시 송파구 마천로 25, 1층",37.5096463,127.1238934,02-425-4317,평일 08:00 ~ 22:00주말 09:00 ~ 22:00
돌배기집,서울특별시,강서구청점,서울특별시 강서구 공항대로46길 47,37.5538844,126.8521584,02-6398-0306,24시간
홍콩반점0410,서울특별시,노원역남부점,"서울특별시 노원구 노해로 502, KT 노원지사 2층",37.6543814,127.0636656,02-3391-0410,11:00 ~ 22:00 (마지막주문21:30)
빽다방,서울특별시,이태원점,"서울시 용산구 보광로59길 37, 1층",37.5337748,126.9918716,02-797-3122,09:00 ~ 23:00
홍콩반점0410,서울특별시,구로시장점,서울특별시 구로구 구로동로26길 125,37.4898456,126.8910497,02-863-0779,11 : 00 ~ 22 : 30 (마지막 주문 21 : 30)
빽다방,서울특별시,구로시장점,"서울시 구로구 구로동로26길 125, 1~2층",37.4898456,126.8910497,02-856-0779,"평일 08:00 ~ 21:30주말, 공휴일 08:30 ~21:30아이스크림 마감 20:30"
역전우동0410,서울특별시,까치산역점,"서울시 강서구 강서로 39, 1층",37.531318,126.8466889,02-2692-0410,10:00~22:00 (L.O 21:30)
빽다방,서울특별시,까치산역점,"서울시 강서구 강서로 48, 1층",37.5321653,126.8467222,02-2699-9966,08:00 ~ 20:50
빽다방,서울특별시,천왕역점,"서울시 구로구 오리로 1149, 랑데르 1층",37.4943867,126.8325917,02-2688-7766,평일 08:00 ~ 21:00주말 09:00 ~ 22:00
백철판0410,서울특별시,노량진역점,"서울시 동작구 만양로 108, 2층",37.5130282,126.944421,02-825-3327,11:00 ~ 23:00
홍콩반점0410,서울특별시,동묘역점,"서울시 종로구 종로 344, 대우디오빌 2층 ( 동묘역점 4번출구 우측 대우디오빌 2층)",37.5727002,127.0160721,02-2233-0858,11:30 ~ 21:30(마지막 주문 21:00)
빽다방,서울특별시,목동41타워점,"서울시 양천구 목동동로 293, 현대41타워 1층 제1-10호",37.5281527,126.8757457,02-2644-7140,08:00 ~ 22:00
역전우동0410,서울특별시,화곡역점,"서울시 강서구 화곡로 160, 1층",37.5411313,126.8394361,02-2601-0410,09:00~22:00	(라스트오더 21:30)
역전우동0410,서울특별시,중계은행사거리점,"서울 노원구 한글비석로 264, 중계그랜드프라자 118호",37.6508596,127.0770963,02) 935-0410,10:00~22:00	(라스트오더) 21:00
빽다방,서울특별시,영등포구청역점,서울시 영등포구 당산로 113 (당산동3가 378),37.5248406,126.8961092,02-2068-8870,평일 07:30 ~ 22:30주말 및 공휴일 08:00 ~ 21:30
빽다방,서울특별시,등촌역점,"서울시 양천구 공항대로 564, 1층",37.5490542,126.8678586,02-6401-0000,07:00 ~ 21:30
빽다방,서울특별시,당산역점,"서울시 영등포구 양평로 28-1, 1층",37.5334469,126.9032157,02-2069-1965,평일 08:00 ~ 21:30주말 09:00 ~ 21:30
빽다방,서울특별시,문정법조현대점,"서울특별시 송파구 법원로11길 11, 문정현대지식산업센터1-1 A동 125호",37.4896385,127.1278147,02-3400-0369,평일 07:30 ~ 19:00주말 09:00 ~ 17:00
빽다방,서울특별시,구로디지털역점,"서울시 구로구 디지털로32길 79, 1층",37.4834102,126.8997098,02-861-2929,09:00~22:00 (L.O 21:30)
역전우동0410,서울특별시,구로디지털역점,서울시 구로구 디지털로32길 79 1층,37.4834102,126.8997098,02-861-2929,10:00 ~ 21:30
홍콩반점0410,서울특별시,가산대륭점,서울특별시 금천구 벚꽃로 298 (대륭포스트타워 6차 102호),37.4813244,126.8837789,02-861-0410,11 : 00 ~ 22 : 00 (브레이크타임 15:00 ~ 16:30)
홍콩반점0410,서울특별시,금천시흥사거리점,"서울시 금천구 시흥대로62길 18, 1층",37.4553106,126.9015864,02-808-0410,11:00~22:00 / 주문마감  21:30
홍콩반점0410,서울특별시,구의역점,서울특별시 광진구 아차산로51길 11,37.5375201,127.0851205,02-3436-0410,11:00 ~ 21:00 (브레이크타임 평일 15:30 ~ 16:30)
홍콩반점0410,서울특별시,구로디지털단지역점,서울특별시 구로구 시흥대로 557 (2층),37.4829405,126.901035,02-863-3200,월~금 10:30 ~ 21:00
홍콩반점0410,서울특별시,교대역점,서울특별시 서초구 서초대로54길 32,37.4927691,127.0161311,02-522-9089,11:00 ~ 21:30(마지막 주문 21:00)
홍콩반점0410,서울특별시,관악구청점,"서울시 관악구 관악로 152, 1층",37.4786593,126.9525782,02-886-8965,월~토 11:00 ~ 21:50(주문 마감 21:20)일요일 11:00 ~ 21:30(주문 마감 21:00)※브레이크타임 15:30 ~ 16:40
홍콩반점0410,서울특별시,고대안암점,서울특별시 성북구 인촌로24가길 6 (2층),37.5851374,127.029698,02-6084-8864,11:00 ~ 21:00 (브레이크타임 15:30 ~ 16:30)
홍콩반점0410,서울특별시,경희대점,서울특별시 동대문구 경희대로 12-1,37.5926514,127.0526981,02-964-0410,11:00 ~ 21:00 (마지막 주문 20:30)
홍콩반점0410,서울특별시,건대입구역점,"서울특별시 광진구 아차산로 221 - 건대입구역 1번출구 성수방향으로 15M 직진, 건대역부동산 2층",37.540897,127.068177,02-466-0410,월~금 10:00 ~ 21:00
홍콩반점0410,서울특별시,강남역점,"서울시 강남구 테헤란로4길 27, 2층",37.4966545,127.0304097,02-555-8883,11 : 30 ~ 21 : 30 (라스트 오더 21:00)
홍콩반점0410,서울특별시,동대문점,서울특별시 중구 장충단로13길 11 (지하1층),37.5677537,127.0080255,02-2269-5778,11:30 ~ 익일 06:30
홍콩반점0410,서울특별시,독산홈플러스점,"서울시 금천구 시흥대로 405, 2층",37.4698257,126.8975383,02-858-5558,11:00~22:00 /  주문마감 21:00
홍콩반점0410,서울특별시,대학로점,서울특별시 종로구 대학로10길 16 (지하1층),37.5815987999999,127.0030708,02-3675-5004,11:00 ~ 24:00 (마지막주문 : 23:30)
홍콩반점0410,서울특별시,대치은마점,서울특별시 강남구 도곡로84길 6 (2층),37.498884,127.0626001,02-568-1238,10:00~21:30 / 주문마감 21:10
홍콩반점0410,서울특별시,당산역점,"서울시 영등포구 양평로 70, 2층",37.5353709,126.8992817,02-2676-5892,11:00 ~ 21:20 [브레이크 타임-15:00 ~ 15:40]
홍콩반점0410,서울특별시,노량진점,서울특별시 동작구 만양로 110 (2층),37.5131509,126.9444408,02-816-0411,11:00 ~ 22:30 ( B.T _ 매월 둘째주 화요일 15:00-17:00 )
홍콩반점0410,서울특별시,까치산역점,서울시 강서구 강서로 33 2층 (화곡동 343-61),37.5306581,126.8470237,02-2695-0410,11 : 30 ~ 22 : 00 (주문 마감 시간)일요일 브레이크타임 : 15:00 ~ 16:30
홍콩반점0410,서울특별시,보라매공원점,서울시 동작구 보라매로 5가길 16 204호,37.4912431,126.9240825,02-845-0410,11:00 ~ 21:00
홍콩반점0410,서울특별시,명동점,"서울특별시 중구 명동10길 7-4 2, 2층",37.5633122,126.9854033,02-778-0410,11:30 ~ 22:00
홍콩반점0410,서울특별시,성신여대점,서울특별시 성북구 동소문로20나길 18 (지하1층),37.5920953,127.0176263,02-923-0410,11:30 ~ 21:30
홍콩반점0410,서울특별시,서초역점,서울특별시 서초구 반포대로28길 16 (태림빌딩 지하),37.4904316,127.0095363,02-585-0410,11 : 00 ~ 21 : 50
홍콩반점0410,서울특별시,서초교보점,서울특별시 서초구 사평대로52길 1,37.5034574,127.0222102,02-592-9540,11:30 ~ 21:00 / 마지막 주문 20:30 (브레이크 타임-15:00 ~ 17:00/주문 14:30까지)
홍콩반점0410,서울특별시,사당역점,"서울특별시 관악구 과천대로 951, 나호 지하층(남현동, 연송빌딩)",37.475496,126.9812655,02-3474-0410,11:30 ~ 22:30
홍콩반점0410,서울특별시,신촌2호점,서울특별시 서대문구 명물길 19,37.5580661,126.9375418,02-3147-0410,11:00 ~ 22:30
홍콩반점0410,서울특별시,신사역점,"서울시 강남구 강남대로152길 43, 1~3층",37.5182728,127.0228099,02-549-7797,11:30 ~ 22:20 (마지막 주문-21:55)[브레이크 타임] 평일 16:00 ~ 17:00 / 주말 16:00 ~16:30
홍콩반점0410,서울특별시,신림역점,서울특별시 관악구 남부순환로 1592-8 (2층),37.4834339,126.9277664,02-883-0410,11:00 ~ 22:00 / 주문마감 21:30 / 브레이크 타임 평일 15:00 ~ 16:00
홍콩반점0410,서울특별시,신림고시촌점,서울특별시 관악구 호암로24길 66 (2층),37.4691987,126.9367807,02-877-0410,11:00 ~ 22:00 / 주문마감 21:50 / 브레이크 타임 15:00 ~ 16:00
홍콩반점0410,서울특별시,신대방삼거리역점,서울시 동작구 국사봉 1길 25,37.4990268,126.9299874,02-825-5088,11:00 ~ 22:00 (주문마감시간  21:25)
홍콩반점0410,서울특별시,수유역점,"서울시 강북구 수유로 84, 2층",37.6360593,127.0228193,02-905-0410,11:00 ~ 21:30 (라스트오더 20:00) 브레이크타임 15:30~16:30
홍콩반점0410,서울특별시,외대점,서울시 동대문구 휘경로 17( 외대앞역 1번출구 직선방향 70m),37.5958202,127.0621475,02-6407-8864,10:00 ~ 22:00
홍콩반점0410,서울특별시,연신내역점,"서울시 은평구 통일로 855-15, 2층",37.619209,126.9197683,02-352-1814,11:30 ~ 21:30매주 목요일 정기휴무
홍콩반점0410,서울특별시,압구정역점,서울특별시 강남구 논현로171길 12 (방성빌딩 2층),37.5256678,127.0274006,02-511-6994,11:30 ~ 21:20 (주문 마감 시간_20:50)
홍콩반점0410,서울특별시,중앙대점,서울특별시 동작구 흑석로 101-3,37.5078246,126.960673,02-823-0410,11:00 ~ 22:00 (주문은 21:30에 마감)
홍콩반점0410,서울특별시,이수역점,"서울 동작구 동작대로27가길 38, 1층(서울 동작구 사당동 145-13번지)",37.4858671,126.9809517,02-535-7135,11:00 ~ 21:20 (브레이크타임 15:00 ~ 15:30)
홍콩반점0410,서울특별시,한양대점,서울특별시 성동구 마조로 25,37.5600007,127.0409001,02-2293-0410,11:30 ~ 22:00 (마지막 주문 21:30) / 브레이크 타임 15:00~16:00
홍콩반점0410,서울특별시,한남점,서울특별시 용산구 한남대로21길 20,37.5338912,127.0061366,02-796-0410,11:00 ~ 21:00
홍콩반점0410,서울특별시,화곡역점,"서울시 강서구 화곡로 140, 1층",37.5404707,126.8372285,02-2691-1144,11:00 ~ 23:30(주문마감 22:50)
홍콩반점0410,서울특별시,홍대입구역점,서울특별시 마포구 와우산로23길 44,37.5547481,126.9236715,02-333-0410,10:00 ~ 22:30 (주문 마감 시간: 22:00)
홍콩반점0410,서울특별시,잠실신천점,서울특별시 송파구 올림픽로10길 8,37.5109366999999,127.0808617,02-418-0410,10시~ 새벽2시
홍콩반점0410,서울특별시,가락시장역점,서울특별시 송파구 송파대로28길 27 (성원상떼빌 2층),37.4950134,127.1204127,02-409-0410,10:00~22:00 / 마지막 21:30 (15:00~16:30)
홍콩반점0410,서울특별시,영등포역점,"서울시 영등포구 영중로2길 1, 2층",37.5167048,126.9067265,02-2679-9010,10:00 ~ 22:00
홍콩반점0410,서울특별시,잠실장미상가점,"서울시 송파구 올핌픽로35길 112, 장미B상가 105호",37.5178208,127.1017644,02-420-0410,11 : 00 ~ 22 : 30 (주문마감시간 : 22 : 00)
한신포차,서울특별시,길동점,서울특별시 강동구 진황도로 93,37.5360803,127.1368432,02-487-3329,16:00 ~ 익일 07:00
한신포차,서울특별시,구의역점,서울특별시 광진구 자양로18길 25,37.5378668,127.0848594,02-454-0654,17:00 ~ 익일 04:00
한신포차,서울특별시,송파방이점,서울특별시 송파구 올림픽로32길 20,37.5141841,127.1092098,02-412-8882,18:00 ~ 익일 06:00
한신포차,서울특별시,대학로점,서울특별시 종로구 대학로12길 13,37.5826952,127.0025263,02-744-7710,16:00 ~ 익일 05:00
한신포차,서울특별시,이수점,서울특별시 동작구 동작대로27가길 44,37.4856189,126.9807956,02-583-7979,18:00 ~ 익일 06:00
한신포차,서울특별시,연신내점,서울특별시 은평구 연서로29길 14-13,37.619544,126.9191529,02-357-8839,16:00 ~ 익일 06:00
한신포차,서울특별시,신촌점,"서울 서대문구 연세로7안길 10-4 1층, 지하1층",37.5582696,126.9364252,02-333-3284,17:00~익일 05:00
한신포차,서울특별시,한양대점,서울시 성동구 마조로 5길 12-1,37.5599950999999,127.0397615,02-2294-6004,15:00 ~ 익일 06:00
한신포차,서울특별시,종로관철점,서울특별시 종로구 삼일대로17길 40,37.5692325,126.9852551,02-735-5535,"평일 , 토요일 : 17:00 ~ 3:00 / 일요일 : 17:00 ~ 1:00"
한신포차,서울특별시,홍대점,서울특별시 마포구 잔다리로 13,37.5505583,126.921594,02-3143-0410,16:00 ~ 익일 08:00
원조쌈밥집,서울특별시,영등포역점,서울시 영등포구 영등포로36길 10,37.5192209,126.903174,02-2676-7626,10:00 ~ 22:00
원조쌈밥집,서울특별시,목동점,서울특별시 양천구 목동서로 57 (현대파리지앙 2층),37.5365367,126.8798966,02-2649-8878,11:30~22:00
원조쌈밥집,서울특별시,명일점,서울특별시 강동구 고덕로38길 63,37.5516381,127.1426937,02-481-8979,11:00 ~ 21:30(브레이크 타임 15:00 ~ 17:00)
역전우동0410,서울특별시,노량진점,서울특별시 동작구 노량진로16길 35 1층,37.5119705,126.9440367,02-816-0410,10:30~21:30 (L.O 21:00) 브레이크타임 15:30~16:30
역전우동0410,서울특별시,건대로데오점,서울 광진구 아차산로 224 1층,37.5405332,127.0680762,02-464-0410,06:00~23:00 라스트오더 22:50
역전우동0410,서울특별시,강남터미널점,"서울시 서초구 신반포로 194, 서울고속버스터미널 1층",37.5054076,127.0070817,02-532-0904,월~목 05:10~23:00 (라스트오더 22:50)  금~일 05:10~24:00  (라스트오더 23:50)
역전우동0410,서울특별시,강남역태극당점,"서울시 강남구 테헤란로4길 46, 쌍용플래티넘밸류상가 1층",37.4953323,127.0303725,02-563-8582,08:20~22:00 (라스트오더 21:40)  매주 일요일
역전우동0410,서울특별시,수유역점,"서울시 강북구 도봉로87길 13, 1층",37.6383595,127.0247698,02-903-0410,10:30~22:30	(라스트오더) 22:30
역전우동0410,서울특별시,성신여대점,서울특별시 성북구 동소문로20길 29-18,37.5913614,127.0176722,02-921-0410,11:00~24:00	(라스트오더) 24:00
역전우동0410,서울특별시,방배점,서울특별시 서초구 방배로 104,37.48353,126.9965566,02-2055-0410,09:00 ~ 23:00 (L.O 22:30)
역전우동0410,서울특별시,동작남성점,서울 동작구 사당로17길 3 1층,37.4834621,126.9742782,02-532-8770,09:00~21:00 (L.O 20:30)
역전우동0410,서울특별시,회기역점,"서울시 동대문구 회기로 186, 1층",37.5897211,127.0563847,02-957-0410,24시간 (브레이크타임 04:30~06:00)
역전우동0410,서울특별시,영등포역점,서울특별시 영등포구 경인로 871,37.5175615,126.9094289,02-2637-0410,10:00~23:00	(라스트오더) 22:30 (브레이크타임) 16:00~17:00
역전우동0410,서울특별시,압구정역점,서울특별시 강남구 압구정로 156 (카로시티2 105호),37.5259931999999,127.026756,02-545-3864,월~토 10:00~20:30 라스트오더 20:00
역전우동0410,서울특별시,연신내역점,"서울시 은평구 연서로 215-1, 1층",37.6178665,126.9194706,02-355-0410,10:00~23:00	(라스트오더) 22:30
새마을식당,서울특별시,가산점,서울특별시 금천구 가산디지털1로 168 우림라이온스빌딩 A-210,37.4798346,126.8824997,02-2026-0113,11:00 ~ 23:00
새마을식당,서울특별시,대치점,"서울특별시 강남구 선릉로64길 19, 1층",37.4982025,127.053862,02-539-4530,24시간
새마을식당,서울특별시,노원역점,서울특별시 노원구 노해로81길 12-20,37.6555504,127.0639444,02-930-0120,24시간
새마을식당,서울특별시,삼성코엑스점,"서울특별시 강남구 삼성로104길 23, 1층",37.5113524,127.0565578,02-558-6062,24시간
새마을식당,서울특별시,양재교육회관점,"서울특별시 서초구 매헌로34, 2층",37.4639964,127.0347756,02-579-1660,평일 11:00~밤12:00 (브레이크타임: 15:00~17:00)주말 11:00~밤12:00
새마을식당,서울특별시,약수역점,서울특별시 중구 다산로 135,37.5559193,127.0110062,02-2235-2983,10:00 ~ 익일 06:00
새마을식당,서울특별시,압구정역점,서울특별시 강남구 압구정로30길 17 이소니플라자 1층,37.5262629,127.0294934,02-3445-5513,10:30~24:00
새마을식당,서울특별시,신촌점,"서울특별시 서대문구 연세로2길 6, 1층",37.5558369,126.9371354,02-365-3284,11:20 ~ 21:30 (마지막 주문 20:50)
새마을식당,서울특별시,이수점,"서울특별시 동작구 동작대로27다길 10, 1층",37.4871098,126.9803423,02-593-3392,11:00 ~ 익일 04:00
새마을식당,서울특별시,오목교역점,서울특별시 양천구 목동동로 260,37.5256665,126.8747772,02-2651-2020,11:00 ~ 익일 04:30
새마을식당,서울특별시,역삼스타타워,서울특별시 강남구 테헤란로20길 19 엘지에클라트 109호,37.498524,127.0350122,02-556-1587,"월~금: 11am~5am(익일) / 토, 일: 11am~11pm (브레이크 타임 15:30~17:00)"
새마을식당,서울특별시,잠실신천점,서울특별시 송파구 백제고분로 7길 45,37.5108929,127.0839208,02-417-0120,24시간 영업
새마을식당,서울특별시,홍대서교점,서울특별시 마포구 어울마당로 144,37.5561608,126.9258254,02-332-0120,24시간
빽다방,서울특별시,강북구청점,서울시 강북구 도봉로87길 48,37.6391543,127.0232603,02-991-9590,10:00 ~ 24:00
빽다방,서울특별시,강동역헤르셔점,"서울시 강동구 천호대로 1089, 신동아파밀리에 B16호",37.5443497,127.1323481,02-471-5371,평일 08:00 ~ 21:00주말/공휴일 10:00 ~ 20:00
빽다방,서울특별시,강남포스코센터점,서울시 강남구 삼성로85길 11,37.5046812,127.056471,02-554-9799,평일 07:00 ~ 19:00주말 09:00 ~ 17:00
빽다방,서울특별시,강남역태극당점,서울시 강남구 테헤란로4길 46,37.4953323,127.0303725,02-501-8467,월-토요일 07:00 ~ 22:00일요일 07:00 ~ 21:00
빽다방,서울특별시,강남역지하도점,서울시 강남구 강남대로 396 강남역 지하 쇼핑센터 E-36,37.4872446,127.0327813,02-3452-3989,"평일 06:30 ~ 21:30토요일, 공휴일 08:00 ~ 20:00"
빽다방,서울특별시,강남역월드점,서울시 서초구 서초대로77길 37,37.5009564,127.0250917,02-537-1519,"월~목 07:00 ~ 23:00금, 토 07:00 ~ 익일 02:00일요일 08:00 ~23:00"
빽다방,서울특별시,가산대륭점,서울시 금천구 벚꽃로 298 107-2호,37.4813244,126.8837789,02-2083-8578,평일 08:00 ~ 21:00주말 09:00 ~ 18:00
빽다방,서울특별시,가락시장역점,서울시 송파구 송파대로28길 27,37.4950134,127.1204127,02-404-0410,평일 08:00 ~ 22:00주말 10:00 ~ 22:00
빽다방,서울특별시,강남소망점,서울시 강남구 언주로159길 3,37.5242673,127.0326364,02-518-3570,평일 08:00 ~ 18:00주말 09:00 ~ 18:00
빽다방,서울특별시,건대역화양점,"서울특별시 광진구 아차산로 29길 29-1, 1층",37.5422215,127.0686063,02-462-4886,08:00 ~ 22:30
빽다방,서울특별시,건대로데오점,"서울시 광진구 아차산로 220, 노유송천빌딩 1층",37.5406229,127.067656,02-464-2147,일~목 07:00 ~ 23:00금요일 07:00 ~ 24:00토요일 08:00 ~ 24:00
빽다방,서울특별시,광운대점,"서울특별시 노원구 광운로 43, 로얄포토빌딩 1층",37.6213106,127.0590011,070-7752-5322,"평일 08:30 ~ 22:00주말, 공휴일 09:00 ~ 22:00"
빽다방,서울특별시,관악구청점,"서울시 관악구 관악로 155, 1층",37.4791278,126.9520708,02-877-6966,08:00 ~ 22:00
빽다방,서울특별시,공덕역새창로점,서울시 마포구 새창로 151-,37.5341432,126.9625222,02-719-4263,07:30 ~ 23:00
빽다방,서울특별시,공덕역롯데캐슬점,"서울특별시 마포구 마포대로 109, 롯데캐슬 지하1층 104-1호",37.5448909,126.9506066,02-718-7367,평일 07:10 ~ 20:30토요일 07:50 ~ 19:30일요일 08:50 ~ 19:30공휴일 09:00 ~ 19:30
빽다방,서울특별시,고속터미널역점,서울특별시 서초구 신반포로 177 반포쇼핑타운 1층 16호,37.5060582,127.0033885,02-535-3608,월 ~ 토 08:30 ~ 20:00일요일 09:00 ~ 20:00
빽다방,서울특별시,구파발역점,서울특별시 은평구 진관2로 15-46 메트로 프라자 1층 110호,37.6386256,126.9190787,02-389-0101,월~토 08:10 ~ 20:30일요일 09:00 ~ 20:30
빽다방,서울특별시,구로코오롱점,"서울특별시 구로구 디지털로30길 31, 코오롱빌란트2차 109호",37.4829591,126.8961638,02-2081-1675,07:30 ~ 20:00
빽다방,서울특별시,구로로제리움점,"서울시 구로구 가마산로26길 5, 로제리움2차 104호",37.4960602,126.8910437,02-856-0375,07:30 ~ 23:00
빽다방,서울특별시,노원역우리은행점,"서울시 노원구 노해로 482, 덕영빌딩 102",37.6542324,127.0617,02-930-1350,08:00 ~ 22:00
빽다방,서울특별시,노량진학원점,"서울시 동작구 만양로 94-2, 1층",37.5118082,126.9444247,02-811-7737,06:30 ~ 23:00
빽다방,서울특별시,길음역점,"서울시 성북구 동소문로 248, 삼부상가 110호",37.602671,127.0236243,02-909-3002,월~금요일 08:00 ~ 22:30토요일 08:00 ~ 22:00일요일 09:00 ~ 22:00(아이스크림 마감 20:30)
빽다방,서울특별시,대치동학원가점,서울 강남구 대치동 941번지 1층,37.498867,127.0586533,02-553-1515,평일 10:30 ~ 22:20주말 09:30 ~ 22:20
빽다방,서울특별시,마포복사꽃공원점,서울 마포구 마포대로4길 16,37.5387252,126.9464702,02-6403-7100,"평일 06:30 ~ 22:00주말 07:00 ~ 22:00설날, 추석 08:00 ~ 22:00기타 연중무휴"
빽다방,서울특별시,둔촌동역점,"서울시 강동구 양재대로 1339, 삼오빌딩 102호",37.5258204,127.1351776,02-475-9464,08:00 ~ 21:30
빽다방,서울특별시,동작남성점,서울특별시 동작구 사당로17길 3,37.4834621,126.9742782,02-532-8770,09:00 ~ 23:00
빽다방,서울특별시,동여의도점,서울시 영등포구 국제금융로 86 롯데캐슬아이비 상가 1층 124호,37.5199092999999,126.9317832,02-786-0020,"월~목요일 09:00 ~ 21:00금,토요일 09:00 ~ 20:30일요일 09:30 ~ 21:00(아이스크림 마감 20:30)"
빽다방,서울특별시,독산롯데점,"서울특별시 금천구 시흥대로 399, 시티렉스 102",37.4693508,126.8972301,02-805-8885,평일 08:00 ~ 21:30 / 토요일 08:30 ~ 22:00 / 일요일 09:00 ~ 21:30
빽다방,서울특별시,방화사거리점,"서울시 강서구 금낭화로 91-2, 대승프라자 1층",37.5736131,126.8110816,02-2663-9560,08:30 ~22:00(아이스크림 마감 21:00)마지막 주문 22:00
빽다방,서울특별시,반포고투몰점,"서울시 서초구 신반포로 지하 200, 강남터미널 지하쇼핑몰 G-018호",37.5054076,127.0070817,02-537-5526,월~토 08:00 ~ 21:00일요일 09:00 ~ 21:00
빽다방,서울특별시,반포고투몰2호점,"서울특별시 서초구 신반포로 지하200, 강남터미널 지하쇼핑몰 T-012호",37.5054076,127.0070817,02-3477-6663,08:30 ~ 20:30
빽다방,서울특별시,목동파리공원점,서울 양천구 목동서로 65 (목동가든스위트),37.536148,126.878813,02-2648-8202,09:00 ~ 22:00
빽다방,서울특별시,목동역점,"서울시 양천구 오목로 231번지, 1층",37.5260631,126.8630304,02-2606-1883,08:00 ~ 22:00
빽다방,서울특별시,명일역점,"서울시 강동구 구천면로 418, 1층",37.5504693,127.1450271,02-427-1026,평일 08:00 ~23:00주말 08:00 ~ 22:00
빽다방,서울특별시,명동중앙우체국점,"서울시 중구 남대문로 58-1, 1층",37.5623942,126.9818582,02-3789-1211,평일 07:00 ~ 18:00주말/공휴일 10:00 ~ 18:00
빽다방,서울특별시,상암KGIT점,"서울특별시 마포구 월드컵북로 402, KGIT센터 105",37.5801248,126.8889591,02-6393-5582,평일 07:30 ~ 21:00주말/휴일 11:00 ~ 18:00
빽다방,서울특별시,불광역점,서울 은평구 통일로 738-1,37.6114005,126.929435,02-352-3530,07:30 ~ 22:00
빽다방,서울특별시,성신여대입구역점,"서울특별시 성북구 동소문로20나길 3, 1층",37.5919396,127.0167825,02-928-4618,"월~토 08:00 ~ 22:00일요일, 공휴일 09:00 ~ 22:00"
빽다방,서울특별시,성수역롯데캐슬점,"서울시 성동구 성수이로 113, 1층",37.5452446,127.0570452,02-464-2876,평일/토요일 08:00 ~ 22:00일요일/공휴일 10:00 ~ 20:00
빽다방,서울특별시,선릉중앙점,"서울시 강남구 선릉로86길 8, 1층",37.5030346,127.0504691,02-566-0708,평일 07:30 ~ 20:30주말 08:00 ~ 20:30
빽다방,서울특별시,선릉역1호점,서울특별시 강남구 테헤란로51길 10 정다운빌딩 102호,37.5047409,127.0469651,02-557-0410,평일 07:30 ~ 22:00토요일 09:30 ~ 21:30
빽다방,서울특별시,서초우성점,"서울시 서초구 사임당로 181, 대일빌딩 101",37.4875174,127.0156625,02-584-1061,평일 08:00 ~ 21:00주말 08:00 ~ 20:00
빽다방,서울특별시,서초역점,"서울시 서초구 서초대로 240, 동일하이빌 110호",37.4917662,127.0083636,02-522-0100,평일 07:30 ~ 20:00주말 09:00 ~ 20:00
빽다방,서울특별시,서울대메트로빌점,"서울특별시 관악구 남부순환로 1811 (봉천동, 신원메트로빌) 1층",37.4817054,126.9514243,02-875-0577,08:00 ~ 22:00
빽다방,서울특별시,서울교대점,"서울특별시 서초구 서초중앙로22길 25, 서초리시온 109호",37.49343,127.0154303,02-586-0511,07:30 ~ 21:00
빽다방,서울특별시,서울과기대점,"서울시 노원구 공릉로 217, 1층",37.6286637,127.0770994,02-949-0112,08:30 ~ 23:00
빽다방,서울특별시,수서역점,"서울시 강남구 밤고개로1길 10, 수서현대벤처빌 109호",37.4879855,127.1017774,02-3412-4243,평일 07:00 ~ 21:00주말 09:00 ~ 21:00(아이스크림 마감 20:00)
빽다방,서울특별시,송파역점,"서울특별시 송파구 송파대로 366, 1층",37.5006861,127.1116886,02-417-8877,평일 09:00 ~ 20:00주말 09:00 ~ 14:30
빽다방,서울특별시,아차산점,"서울시 광진구 천호대로129길 17, 1층",37.5528296,127.0905876,02-3437-3377,08:00 ~ 22:30
빽다방,서울특별시,신촌역점,"서울시 서대문구 연세로2길 6, 1층",37.5558369,126.9371354,02-363-3284,07:30 ~ 21:30
빽다방,서울특별시,신림역1호점,서울 관악구 신림동 1639-8 1층,37.4836556,126.927571,02-887-8833,일 ~ 월 09:00 ~ 21:45토요일 09:00 ~ 22:15
빽다방,서울특별시,여의도시범상가점,"서울특별시 영등포구 63로 45, 시범상가 7동 13호",37.5207424,126.9370305,02-761-6916,07:00 ~ 22:00
빽다방,서울특별시,어린이대공원역점,서울특별시 광진구 광나루로 381-1,37.5480588,127.0723123,02-463-1030,11:00 ~ 21:00
빽다방,서울특별시,양재역점,"서울시 강남구 남부순환로 2615, 극동스타클래스 104호",37.4851013,127.035744,02-575-0824,평일 07:30~21:00주말 08:00 ~19:00
빽다방,서울특별시,압구정역점,강남구 신사동 압구정로 156,37.5259931999999,127.026756,02-3446-0410,평일 08:00 ~ 19:30토요일 08:00 ~ 18:00
빽다방,서울특별시,압구정로데오점,"서울특별시 강남구 선릉로161길 25, 1층",37.5273686,127.0383618,02-3445-5751,"평일 08:30 ~ 19:00토요일, 공휴일 09:00 ~ 18:00"
빽다방,서울특별시,안암역점,"서울시 성북구 인촌로 99-7, 1층",37.5866409,127.0300997,02-925-3246,평일 08:00 ~ 20:00토요일 09:00 ~ 19:00
빽다방,서울특별시,용산문배점,서울시 용산구 백범로 90길 74,37.537451,126.9696399,02-703-0410,평일 07:30~22:30주말 09:00~23:00
빽다방,서울특별시,용산국방부점,서울특별시 용산구 이태원로 4길 14,37.5338436,126.9754758,02-749-4631,평일 05:40 ~ 20:30주말 07:00 ~ 19:00
빽다방,서울특별시,외대역점,서울시 동대문구 휘경로 17,37.5958202,127.0621475,02-962-9697,08:00 ~ 22:30
빽다방,서울특별시,왕십리역점,"서울시 성동구 왕십리로 320-1, 한일빌딩 103",37.5622644,127.0341957,02-2291-0060,평일 08:00 ~ 22:00토요일 08:30 ~ 22:00일요일 09:00 ~ 22:00
빽다방,서울특별시,오금역점,"서울시 송파구 오금로 306, 가락스타클래스 111호",37.5028786,127.1261236,02-2043-8500,평일 07:00 ~ 22:00토요일 07:00 ~ 21:00일요일 08:00 ~ 21:00
빽다방,서울특별시,영등포신세계점,서울시 영등포구 영중로 5,37.5167814,126.9061451,02-2635-4320,평일 07:00 ~ 21:50주말 08:00 ~ 21:50
빽다방,서울특별시,연신내역점,"서울시 은평구 연서로29길 6, 1층",37.6187631,126.9195754,02-389-2682,"평일, 일 08:00 ~ 22:00토 08:00 ~ 23:00"
빽다방,서울특별시,역삼테헤란로점,"서울시 강남구 테헤란로10길 25, 1층",37.4975512,127.0329687,02-553-2111,평일 08:00 ~ 20:00주말/공휴일 11:00 ~ 20:00
빽다방,서울특별시,역삼역GS점,"서울시 강남구 봉은사로30길 73, 1층",37.5029067,127.0371126,02-565-0410,07:30 ~ 18:00
빽다방,서울특별시,은평초교점,"서울시 은평구 은평로 235, 1층",37.6011381,126.9339454,02-353-1082,평일 08:00 ~ 23:00주말 09:00 ~ 23:00
빽다방,서울특별시,월곡역점,"서울시 성북구 화랑로 91, 1층",37.6029449,127.0420987,02-6369-2666,평일 07:00 ~ 22:00주말 09:00 ~ 22:00
빽다방,서울특별시,원효용문시장점,서울특별시 용산구 새창로 132,37.5356241,126.9612434,02-6223-3994,08:00 ~ 22:00
빽다방,서울특별시,우장산역점,"서울시 강서구 강서로 245, 1층",37.5475334,126.8359917,02-2601-1119,08:00 ~ 22:00
빽다방,서울특별시,응암역이마트점,"서울시 은평구 은평로 101, 1층",37.5999286,126.9190517,02-6408-6603,평일 08:00 ~ 22:30주말/공휴일 09:00 ~ 22:30
빽다방,서울특별시,을지로입구역점,"서울시 중구 남대문로9길 10, 1층",37.5667625,126.9818723,02-318-1770,평일 07:30 ~ 20:00주말 08:00 ~ 17:00
빽다방,서울특별시,잠실신천점,"서울시 송파구 백제고분로7길 45, 1층",37.5108929,127.0839208,02-420-8838,08:00 ~ 22:00
빽다방,서울특별시,정릉시장점,"서울특별시 성북구 보국문로 50, 1층",37.6088141,127.0100922,02-941-4849,월~토 08:00 ~ 22:00일요일 09:00 ~ 22:00아이스크림 마감 20:00
빽다방,서울특별시,장한평역점,"서울시 동대문구 천호대로85길 7, 1층",37.5624683,127.0660226,02-2216-0410,평일 08:00 ~ 21:30토요일 10:00 ~ 21:00일요일 10:00 ~ 18:00
빽다방,서울특별시,잠실장미상가점,"서울시 송파구 올림픽로35길 104, 잠미종합상가 A상가 110호",37.5294029,127.1140129,02-419-4999,평일 07:30 ~ 22:00주말 08:00 ~ 21:00
빽다방,서울특별시,잠실역지하도점,서울시 송파구 올림픽로 265 잠실역지하쇼핑센터 B-12호,37.5176605,127.0746594,02-413-2016,평일 07:00 ~ 22:00주말 08:00~22:00
빽다방,서울특별시,중랑역동부시장점,"서울시 중랑구 망우로32길 14, 1층",37.5932016,127.0764153,02-432-1077,월~토 08:00 ~ 22:30일요일/공휴일 09:00 ~ 22:30
빽다방,서울특별시,중계은행사거리점,"서울시 노원구 한글비석로 235, 1층",37.6487497,127.0763296,02-932-0410,10:00 ~ 22:00아이스크림 마감 21:00
빽다방,서울특별시,종암사거리점,"서울시 성북구 종암로 132, 우림카이저팰리스 상가 111호",37.601907,127.0334836,02-998-8934,08:00 ~ 23:00
빽다방,서울특별시,종로숭인1호점,"서울시 종로구 종로 387, 1층",37.5746113,127.0201938,02-6053-0950,평일 08:00 ~ 22:00 주말 09:00 ~ 22:00
빽다방,서울특별시,종로관철점,"서울시 종로구 종로10길 21,1층",37.5689596,126.9845309,02-720-0102,평일 07:30 ~ 22:30토요일 08:30 ~22:30일요일 11:00 ~ 21:00
빽다방,서울특별시,천호역롯데점,"서울시 강동구 천호옛길 94, 1층",37.5369064,127.1260356,02-474-0410,08:00 ~ 22:00
빽다방,서울특별시,천호역로데오점,"서울시 강동구 올림픽로70길 57, 1층",37.5391272,127.126726,02-477-0066,09:00 ~ 23:00
빽다방,서울특별시,홍제삼거리점,"서울시 서대문구 통일로 426, 1층",37.5872821,126.9461813,02-732-0410,평일 08:00 ~ 21:00주말 09:00 ~ 21:00
빽다방,서울특별시,홍대입구점,"서울특별시 마포구 와우산로23길 44, 1층",37.5547481,126.9236715,02-322-2013,"평일 08:00 ~ 21:00주말, 공휴일 11:00 ~ 21:00"
빽다방,서울특별시,홍대극동방송국점,"서울시 마포구 와우산로13길 2, 1층",37.5499513,126.9228057,02-324-9790,평일 09:00 ~ 22:00주말 10:30 ~ 22:00
빽다방,서울특별시,한티역점,"서울시 강남구 도곡로 405, 1층",37.4971077999999,127.0547704,02-501-7750,08:00 ~ 22:00
빽다방,서울특별시,한양대점,"서울시 성동구 마조로 21, 1층",37.5597775,127.0408203,02-2297-3234,08:15 ~ 24:00
빽다방,서울특별시,등촌성당점,"서울특별시 강서구 공항대로41길 51, 세신그린코아 101호",37.5602256,126.8458006,02-3663-4067,08:30 ~ 22:00
빽다방,서울특별시,남대문시장점,서울시 중구 퇴계로 37,37.5584086,126.9763076,02-772-9750,평일 06:30 ~ 18:00토요일 08:00 ~ 15:00
빽다방,서울특별시,마곡역GMG점,강서구 마곡중앙6로 16 마곡지엠지타워 1층,37.5767515,126.8385166,02-3662-4246,08:00 ~ 21:00
빽다방,서울특별시,서울숲역점,서울 성동구 왕십리로 100,37.5464199,127.0448606,02-499-8242,08:00 ~ 22:00
빽다방,서울특별시,명지대점,서울특별시 서대문구 거북골로 19,37.5802852,126.9252501,02-302-4495,10:00 ~22:00
빽다방,서울특별시,면목역점,"서울시 중랑구 겸재로 178, 1층",37.5880043,127.0872917,02-6014-5368,월~토 08:30 ~ 22:30일요일 09:30 ~ 21:00
빽다방,서울특별시,고속터미널지하점,서울시 서초구 신반포로 188 고속터미널 지하 5호매장,37.5054942,127.006719,02-594-0410,월-토 09:00 ~ 20:00일 10:00 ~ 20:00
빽다방,서울특별시,망원시장점,서울특별시 마포구 월드컵로13길 34,37.5555625,126.9082449,02-332-2740,월~토 08:00 ~ 22:00일요일 08:30 ~ 22:00
빽다방,서울특별시,신림역2호점,서울시 관악구 신림동 1641-12,37.482939,126.930123,02-882-1609,09:00 ~ 23:00 (라스트오더 22:30 )
빽다방,서울특별시,청량리역점,"서울시 동대문구 왕산로 209, 1층",37.5809354,127.0457841,02-3293-0032,월~토 08:00 ~ 22:00 (마지막 주문 21:30)일요일/공휴일 09:00 ~ 21:00 (마지막 주문 20:30)
빽다방,서울특별시,총신대입구역점,"서울시 서초구 동작대로 128, 1층",37.4878646,126.9826094,02-533-1859,평일 07:00 ~ 21:30토 08:00 ~ 21:30일 09:00 ~ 21:30
빽다방,서울특별시,신대방삼거리점,서울특별시 동작구 국사봉1길 28,37.4988392,126.9300703,02-825-5077,07:00 ~ 23:00
빽다방,서울특별시,태평로점,"서울시 중구 세종대로 82, 1층",37.5633583,126.977065,02-318-3323,07:30 ~ 19:00
분식9단,서울특별시,현대백화점 미아점,서울특별시 성북구 동소문로 315 현대백화점미아점,37.6080757,127.0288683,미등록,10:30 ~ 20:00
본가,서울특별시,일원점,서울특별시 강남구 일원로9길 64,37.4907123,127.0867524,02-445-9233,10:00 ~ 22:00
본가,서울특별시,신사점,서울특별시 서초구 신반포로47길 87,37.5141796,127.0185909,02-518-9645,11:00 ~ 23:00
본가,서울특별시,노원점,서울특별시 노원구 노해로83길 10-4,37.6556645,127.0645822,02-931-9291,11시 30분 ~ 익일 새벽 1시까지
백철판0410,서울특별시,건대역점,"서울시 광진구 동일로 22길 105, 지하1층",37.5409158,127.0698537,02-499-0410,11:30 ~ 22:00
백스비어,서울특별시,영등포역점,서울 영등포구 영중로 4길 7-1,37.5172845,126.9071525,02-3667-7200,15:00 ~ 익일 02:00
백스비어,서울특별시,신림역점,"서울시 관악구 남부순환로 1600-24, 2~3층",37.4834123,126.9291608,02-885-3346,16:00 ~ 익일 05:00
미정국수0410,서울특별시,대학로점,"서울특별시 종로구 대학로 131, 지하1층(명륜4가)",37.5833418,127.0013096,02-766-0410,09:30 ~ 23:00
미정국수0410,서울특별시,종각점,서울특별시 종로구 종로10길5 신우빌딩 1층,37.5698037,126.9845081,02-725-5300,24시간
미정국수0410,서울특별시,교대역점,서울특별시 서초구 서초대로54길 15 1층,37.4934014,127.0161069,02-583-0410,24시간  B.T (am)03:00-05:00 / (pm)15:00~16:00
미정국수0410,서울특별시,강남역점,서울특별시 서초구 서초대로77길 37 1층,37.5009564,127.0250917,02-532-4937,24시간
미정국수0410,서울특별시,신촌점,서울특별시 서대문구 연세로7안길 2 1층,37.5577105,126.9364659,02-335-3864,10:50 ~ 21:00
미정국수0410,서울특별시,홍대입구역점,서울특별시 마포구 홍익로 10 서교푸르지오상가 141~2호,37.553716,126.9236241,02-3141-0410,24시간
미정국수0410,서울특별시,구로디지털역점,서울특별시 구로구 시흥대로 577 1층,37.4843329,126.9022313,02-862-0410,24시간 (일요일 ~21:00 / 월요일 11:30~)
돌배기집,서울특별시,구로디지털역점,서울시 구로구 디지털로32길 97-3,37.48323,126.9004813,02-857-0410,오전 11:30 ~ 오전 05:00 (예약은 19:00시 까지 가능)
돌배기집,서울특별시,영등포역점,서울시 영등포구 영중로4길 6-1,37.5170692,126.9071545,02-2676-7596,12:00 ~ 22:00
구내식당,서울특별시,논현본점,서울 강남구 논현동 167-31,37.5070967,127.0242744,02-3445-7589,24시간
백's 비빔밥,서울특별시,Isu Station,서울 서초구 방배동 3001-1번지 디오슈페리움2차 103호,37.4860725,126.9826102,02-532-5496,
